{
"type": "FeatureCollection",
"name": "lines",
"crs": { "type": "name", "properties": { "name": "urn:ogc:def:crs:OGC:1.3:CRS84" } },
"xy_coordinate_resolution": 1e-06,
"features": [
{ "type": "Feature", "properties": { "kv": "138", "src": "HIFLD" }, "geometry": { "type": "LineString", "coordinates": [ [ -157.86729, 21.317886 ], [ -157.866849, 21.318184 ], [ -157.867081, 21.318648 ], [ -157.867426, 21.31879 ], [ -157.875368, 21.323478 ], [ -157.879398, 21.326877 ], [ -157.87632, 21.330093 ], [ -157.874041, 21.332002 ], [ -157.87626, 21.335012 ], [ -157.872019, 21.338052 ], [ -157.874731, 21.341425 ], [ -157.87491, 21.343055 ], [ -157.875445, 21.343917 ], [ -157.874136, 21.344899 ], [ -157.871305, 21.345964 ], [ -157.869621, 21.347689 ], [ -157.867873, 21.350782 ], [ -157.863328, 21.357314 ], [ -157.86243, 21.360657 ], [ -157.868277, 21.371049 ], [ -157.876558, 21.379395 ], [ -157.880026, 21.380371 ], [ -157.881519, 21.378551 ], [ -157.882566, 21.378229 ], [ -157.882964, 21.3793 ], [ -157.882639, 21.37954 ] ] } },
{ "type": "Feature", "properties": { "kv": "138", "src": "HIFLD" }, "geometry": { "type": "LineString", "coordinates": [ [ -157.755793, 21.410018 ], [ -157.752844, 21.413798 ], [ -157.752532, 21.414331 ], [ -157.75018, 21.419585 ] ] } },
{ "type": "Feature", "properties": { "kv": "138", "src": "HIFLD" }, "geometry": { "type": "LineString", "coordinates": [ [ -158.127691, 21.355486 ], [ -158.127525, 21.355721 ], [ -158.127854, 21.35633 ], [ -158.128166, 21.356686 ] ] } },
{ "type": "Feature", "properties": { "kv": "46plus", "src": "HIFLD" }, "geometry": { "type": "LineString", "coordinates": [ [ -157.722556, 21.344803 ], [ -157.72228, 21.344179 ], [ -157.721709, 21.343442 ], [ -157.721, 21.343042 ], [ -157.714456, 21.340905 ], [ -157.706775, 21.33824 ], [ -157.706761, 21.338454 ], [ -157.704615, 21.337712 ], [ -157.704612, 21.337541 ], [ -157.703866, 21.337323 ], [ -157.703687, 21.337193 ] ] } },
{ "type": "Feature", "properties": { "kv": "46plus", "src": "HIFLD" }, "geometry": { "type": "LineString", "coordinates": [ [ -157.737385, 21.377557 ], [ -157.736987, 21.377976 ], [ -157.736605, 21.378159 ], [ -157.736035, 21.378218 ], [ -157.735503, 21.378117 ], [ -157.734541, 21.377688 ], [ -157.733092, 21.377246 ], [ -157.732413, 21.377121 ], [ -157.731962, 21.377203 ], [ -157.731571, 21.377427 ], [ -157.731027, 21.378231 ], [ -157.730848, 21.378672 ], [ -157.730791, 21.379207 ], [ -157.730357, 21.380334 ], [ -157.729904, 21.380791 ], [ -157.729274, 21.380858 ] ] } },
{ "type": "Feature", "properties": { "kv": "46plus", "src": "HIFLD" }, "geometry": { "type": "LineString", "coordinates": [ [ -158.106779, 21.576893 ], [ -158.106593, 21.577071 ], [ -158.105485, 21.576511 ], [ -158.104563, 21.576538 ], [ -158.10454, 21.576929 ], [ -158.102629, 21.581713 ], [ -158.102318, 21.583555 ], [ -158.101919, 21.583532 ], [ -158.101656, 21.583657 ], [ -158.101491, 21.584569 ], [ -158.098898, 21.59106 ], [ -158.097394, 21.593433 ], [ -158.096731, 21.594307 ], [ -158.094293, 21.597959 ], [ -158.086405, 21.611207 ], [ -158.084703, 21.61196 ], [ -158.084292, 21.612663 ], [ -158.084639, 21.614187 ], [ -158.084431, 21.615094 ], [ -158.082516, 21.618658 ], [ -158.078964, 21.620615 ], [ -158.076171, 21.620349 ] ] } },
{ "type": "Feature", "properties": { "kv": "138", "src": "HIFLD" }, "geometry": { "type": "LineString", "coordinates": [ [ -157.75018, 21.419585 ], [ -157.749382, 21.421418 ], [ -157.749852, 21.422349 ], [ -157.750631, 21.423039 ] ] } },
{ "type": "Feature", "properties": { "kv": "138", "src": "HIFLD" }, "geometry": { "type": "LineString", "coordinates": [ [ -158.106528, 21.303419 ], [ -158.107472, 21.303104 ], [ -158.10772, 21.303692 ], [ -158.103997, 21.304213 ], [ -158.103611, 21.304543 ], [ -158.103587, 21.30493 ] ] } },
{ "type": "Feature", "properties": { "kv": "46plus", "src": "HIFLD" }, "geometry": { "type": "LineString", "coordinates": [ [ -157.730141, 21.34195 ], [ -157.730514, 21.341786 ] ] } },
{ "type": "Feature", "properties": { "kv": "46plus", "src": "HIFLD" }, "geometry": { "type": "LineString", "coordinates": [ [ -158.053762, 21.614041 ], [ -158.053486, 21.614348 ], [ -158.055516, 21.614949 ], [ -158.058957, 21.617031 ], [ -158.069265, 21.622316 ], [ -158.070838, 21.622368 ], [ -158.072466, 21.618964 ], [ -158.075215, 21.619721 ], [ -158.075544, 21.620303 ], [ -158.076171, 21.620349 ] ] } },
{ "type": "Feature", "properties": { "kv": "138", "src": "HIFLD" }, "geometry": { "type": "LineString", "coordinates": [ [ -158.045737, 21.371959 ], [ -158.046228, 21.372492 ], [ -158.047345, 21.37408 ], [ -158.048256, 21.37452 ], [ -158.047784, 21.375419 ], [ -158.04769, 21.376587 ], [ -158.044696, 21.377693 ], [ -158.04368, 21.378264 ], [ -158.040102, 21.379619 ], [ -158.035163, 21.382715 ], [ -158.022344, 21.389714 ], [ -158.021159, 21.390285 ], [ -158.01629, 21.391934 ], [ -158.01503, 21.392494 ], [ -158.013413, 21.393661 ], [ -158.011718, 21.39515 ], [ -158.010658, 21.396517 ], [ -158.008338, 21.397702 ], [ -158.004683, 21.399111 ], [ -158.002295, 21.399754 ], [ -158.000486, 21.399782 ], [ -157.99355, 21.398375 ], [ -157.992725, 21.39916 ], [ -157.991633, 21.401529 ], [ -157.98973, 21.401667 ], [ -157.988926, 21.402112 ], [ -157.985849, 21.399927 ], [ -157.984382, 21.398611 ], [ -157.981384, 21.397673 ], [ -157.972089, 21.394329 ], [ -157.965494, 21.392041 ], [ -157.962564, 21.390689 ], [ -157.963441, 21.390338 ], [ -157.964094, 21.389924 ], [ -157.963366, 21.389039 ], [ -157.960147, 21.387601 ], [ -157.959772, 21.388632 ], [ -157.960443, 21.389285 ] ] } },
{ "type": "Feature", "properties": { "kv": "46plus", "src": "HIFLD" }, "geometry": { "type": "LineString", "coordinates": [ [ -157.994541, 21.690398 ], [ -157.994642, 21.690779 ], [ -157.992626, 21.691053 ], [ -157.98961, 21.693402 ], [ -157.987968, 21.693854 ], [ -157.983828, 21.693706 ], [ -157.977831, 21.691493 ], [ -157.974018, 21.690178 ], [ -157.971115, 21.687174 ], [ -157.971295, 21.686863 ] ] } },
{ "type": "Feature", "properties": { "kv": "46plus", "src": "HIFLD" }, "geometry": { "type": "LineString", "coordinates": [ [ -157.748439, 21.421052 ], [ -157.748948, 21.420392 ], [ -157.749348, 21.419595 ], [ -157.749518, 21.419565 ] ] } },
{ "type": "Feature", "properties": { "kv": "138", "src": "HIFLD" }, "geometry": { "type": "LineString", "coordinates": [ [ -157.793945, 21.383856 ], [ -157.794421, 21.384037 ], [ -157.799942, 21.383989 ], [ -157.807675, 21.388036 ], [ -157.810763, 21.39127 ], [ -157.819722, 21.391111 ], [ -157.824983, 21.390823 ], [ -157.831587, 21.388765 ], [ -157.841476, 21.388929 ], [ -157.853582, 21.386335 ], [ -157.863256, 21.381445 ], [ -157.868096, 21.379393 ], [ -157.872537, 21.377927 ], [ -157.875144, 21.380182 ], [ -157.879669, 21.382275 ], [ -157.881778, 21.379174 ], [ -157.88233, 21.379031 ], [ -157.883939, 21.379078 ], [ -157.88609, 21.381943 ], [ -157.890276, 21.388273 ], [ -157.901088, 21.395374 ], [ -157.904667, 21.399222 ], [ -157.909986, 21.401419 ], [ -157.919001, 21.406671 ], [ -157.930499, 21.411145 ], [ -157.943595, 21.414685 ], [ -157.948088, 21.413324 ], [ -157.950991, 21.408756 ], [ -157.953532, 21.404016 ], [ -157.957967, 21.398734 ], [ -157.959614, 21.396583 ], [ -157.962317, 21.394022 ], [ -157.963192, 21.39151 ], [ -157.960708, 21.390358 ], [ -157.960443, 21.389285 ] ] } },
{ "type": "Feature", "properties": { "kv": "138", "src": "HIFLD" }, "geometry": { "type": "LineString", "coordinates": [ [ -158.128853, 21.356395 ], [ -158.127691, 21.355486 ] ] } },
{ "type": "Feature", "properties": { "kv": "46plus", "src": "HIFLD" }, "geometry": { "type": "LineString", "coordinates": [ [ -158.00491, 21.46418 ], [ -158.006235, 21.465264 ] ] } },
{ "type": "Feature", "properties": { "kv": "46plus", "src": "HIFLD" }, "geometry": { "type": "LineString", "coordinates": [ [ -158.045211, 21.372316 ], [ -158.045737, 21.371959 ] ] } },
{ "type": "Feature", "properties": { "kv": "46plus", "src": "HIFLD" }, "geometry": { "type": "LineString", "coordinates": [ [ -157.730141, 21.34195 ], [ -157.722556, 21.344803 ] ] } },
{ "type": "Feature", "properties": { "kv": "46plus", "src": "HIFLD" }, "geometry": { "type": "LineString", "coordinates": [ [ -158.049494, 21.493478 ], [ -158.049902, 21.49333 ], [ -158.050488, 21.493827 ], [ -158.05056, 21.494406 ], [ -158.051522, 21.498093 ], [ -158.05231, 21.498878 ], [ -158.053012, 21.49889 ], [ -158.054159, 21.498171 ], [ -158.055512, 21.497567 ], [ -158.056526, 21.496521 ], [ -158.056913, 21.496905 ], [ -158.057595, 21.49709 ], [ -158.060008, 21.495838 ], [ -158.060543, 21.495374 ], [ -158.061094, 21.495104 ], [ -158.062104, 21.496077 ], [ -158.062906, 21.495369 ], [ -158.064204, 21.496601 ], [ -158.065501, 21.496529 ], [ -158.065949, 21.496669 ], [ -158.067943, 21.498619 ], [ -158.069413, 21.497445 ], [ -158.069673, 21.497601 ], [ -158.069793, 21.497509 ], [ -158.070013, 21.497654 ] ] } },
{ "type": "Feature", "properties": { "kv": "138", "src": "HIFLD" }, "geometry": { "type": "LineString", "coordinates": [ [ -157.749518, 21.419565 ], [ -157.749675, 21.419395 ], [ -157.75018, 21.419585 ] ] } },
{ "type": "Feature", "properties": { "kv": "138", "src": "HIFLD" }, "geometry": { "type": "LineString", "coordinates": [ [ -157.816845, 21.403927 ], [ -157.818434, 21.405143 ], [ -157.820397, 21.405779 ], [ -157.822562, 21.408627 ], [ -157.82515, 21.41282 ], [ -157.829986, 21.422005 ], [ -157.827238, 21.42614 ], [ -157.83101, 21.424576 ], [ -157.837778, 21.424722 ], [ -157.843333, 21.424167 ], [ -157.846067, 21.422543 ], [ -157.845696, 21.420328 ], [ -157.847314, 21.415587 ], [ -157.848468, 21.411774 ], [ -157.850604, 21.402416 ], [ -157.862314, 21.399162 ], [ -157.870471, 21.39328 ], [ -157.873677, 21.390744 ], [ -157.874151, 21.385052 ], [ -157.876221, 21.384046 ], [ -157.880069, 21.382932 ], [ -157.882039, 21.379291 ], [ -157.882482, 21.379184 ], [ -157.882639, 21.37954 ] ] } },
{ "type": "Feature", "properties": { "kv": "138", "src": "HIFLD" }, "geometry": { "type": "LineString", "coordinates": [ [ -158.096812, 21.327582 ], [ -158.096917, 21.328143 ], [ -158.092104, 21.335471 ], [ -158.091505, 21.336798 ], [ -158.092244, 21.338413 ], [ -158.093569, 21.338882 ], [ -158.096472, 21.339482 ], [ -158.100089, 21.340769 ], [ -158.10315, 21.341075 ], [ -158.104121, 21.341704 ], [ -158.109015, 21.342578 ], [ -158.110445, 21.34362 ], [ -158.107802, 21.349578 ], [ -158.10669, 21.352519 ], [ -158.107471, 21.354749 ], [ -158.112791, 21.356223 ], [ -158.122266, 21.35424 ], [ -158.125989, 21.354822 ], [ -158.126853, 21.355307 ], [ -158.127691, 21.355486 ] ] } },
{ "type": "Feature", "properties": { "kv": "46plus", "src": "HIFLD" }, "geometry": { "type": "LineString", "coordinates": [ [ -157.79879, 21.399914 ], [ -157.797996, 21.397919 ], [ -157.797311, 21.395928 ], [ -157.797689, 21.395503 ], [ -157.797404, 21.394143 ], [ -157.797157, 21.39334 ], [ -157.796722, 21.39243 ], [ -157.79485, 21.389396 ], [ -157.793219, 21.386984 ], [ -157.792599, 21.386398 ] ] } },
{ "type": "Feature", "properties": { "kv": "46plus", "src": "HIFLD" }, "geometry": { "type": "LineString", "coordinates": [ [ -158.00491, 21.46418 ], [ -158.004689, 21.464209 ], [ -158.002819, 21.463744 ], [ -157.999174, 21.462127 ], [ -157.999064, 21.461903 ], [ -157.998818, 21.46325 ] ] } },
{ "type": "Feature", "properties": { "kv": "46plus", "src": "HIFLD" }, "geometry": { "type": "LineString", "coordinates": [ [ -158.042763, 21.526468 ], [ -158.039676, 21.528207 ] ] } },
{ "type": "Feature", "properties": { "kv": "138", "src": "HIFLD" }, "geometry": { "type": "LineString", "coordinates": [ [ -157.754542, 21.427247 ], [ -157.754348, 21.42838 ], [ -157.75415, 21.428282 ] ] } },
{ "type": "Feature", "properties": { "kv": "46plus", "src": "HIFLD" }, "geometry": { "type": "LineString", "coordinates": [ [ -157.739932, 21.367817 ], [ -157.740375, 21.368652 ], [ -157.740942, 21.370101 ], [ -157.742059, 21.371465 ], [ -157.744415, 21.373974 ], [ -157.745464, 21.374481 ], [ -157.747834, 21.376258 ], [ -157.748983, 21.377029 ], [ -157.751353, 21.378367 ], [ -157.752071, 21.377936 ], [ -157.752178, 21.377701 ], [ -157.753006, 21.377468 ], [ -157.753487, 21.376454 ], [ -157.754286, 21.376682 ], [ -157.755048, 21.377096 ], [ -157.755471, 21.377415 ], [ -157.755833, 21.377986 ], [ -157.756023, 21.378039 ], [ -157.757741, 21.376378 ], [ -157.758564, 21.376311 ], [ -157.75935, 21.376078 ], [ -157.759859, 21.376811 ], [ -157.759864, 21.377796 ], [ -157.760977, 21.377368 ], [ -157.762452, 21.37702 ], [ -157.763181, 21.376725 ], [ -157.763537, 21.376273 ], [ -157.76398, 21.374793 ], [ -157.764503, 21.374379 ], [ -157.766179, 21.374298 ], [ -157.766593, 21.373632 ], [ -157.767011, 21.373546 ], [ -157.768725, 21.373789 ], [ -157.771306, 21.37391 ], [ -157.7724, 21.374605 ], [ -157.773152, 21.374757 ], [ -157.773695, 21.375328 ], [ -157.778141, 21.375746 ] ] } },
{ "type": "Feature", "properties": { "kv": "46plus", "src": "HIFLD" }, "geometry": { "type": "LineString", "coordinates": [ [ -158.004068, 21.469326 ], [ -158.004599, 21.469571 ], [ -158.006463, 21.471578 ] ] } },
{ "type": "Feature", "properties": { "kv": "46plus", "src": "HIFLD" }, "geometry": { "type": "LineString", "coordinates": [ [ -158.076171, 21.620349 ], [ -158.076311, 21.620442 ], [ -158.078839, 21.620734 ], [ -158.071499, 21.626373 ], [ -158.064836, 21.637182 ], [ -158.061886, 21.642333 ], [ -158.062064, 21.642791 ], [ -158.060988, 21.646569 ], [ -158.060202, 21.647871 ], [ -158.059072, 21.650774 ], [ -158.059007, 21.651506 ], [ -158.057347, 21.654659 ], [ -158.056609, 21.655147 ], [ -158.056062, 21.656086 ], [ -158.054254, 21.657972 ], [ -158.053938, 21.658716 ], [ -158.052844, 21.659929 ], [ -158.046419, 21.66605 ], [ -158.045652, 21.666574 ], [ -158.043046, 21.668924 ], [ -158.041101, 21.669649 ], [ -158.039132, 21.671369 ], [ -158.038722, 21.671375 ], [ -158.036985, 21.672951 ], [ -158.037443, 21.673367 ], [ -158.035396, 21.675991 ], [ -158.034825, 21.676217 ], [ -158.034605, 21.676764 ], [ -158.032422, 21.678406 ], [ -158.028407, 21.682088 ], [ -158.022684, 21.685687 ], [ -158.017158, 21.689345 ], [ -158.013202, 21.689143 ], [ -158.011108, 21.689774 ], [ -158.008984, 21.689815 ], [ -158.00463, 21.689363 ], [ -158.001108, 21.690612 ], [ -157.999431, 21.690803 ], [ -157.995772, 21.690589 ], [ -157.994541, 21.690398 ] ] } },
{ "type": "Feature", "properties": { "kv": "46plus", "src": "HIFLD" }, "geometry": { "type": "LineString", "coordinates": [ [ -157.739932, 21.367817 ], [ -157.738122, 21.365504 ], [ -157.737576, 21.36439 ], [ -157.736941, 21.363666 ], [ -157.735463, 21.361332 ], [ -157.734228, 21.359733 ], [ -157.730934, 21.35631 ], [ -157.72981, 21.355013 ], [ -157.729466, 21.354398 ], [ -157.729456, 21.353618 ], [ -157.729677, 21.352397 ], [ -157.729918, 21.351964 ], [ -157.729863, 21.351555 ], [ -157.729993, 21.351327 ], [ -157.730796, 21.346763 ], [ -157.73202, 21.346232 ] ] } },
{ "type": "Feature", "properties": { "kv": "138", "src": "HIFLD" }, "geometry": { "type": "LineString", "coordinates": [ [ -158.020613, 21.42716 ], [ -158.026576, 21.426504 ], [ -158.051241, 21.410793 ], [ -158.06148, 21.404456 ], [ -158.076121, 21.395098 ], [ -158.081597, 21.383297 ], [ -158.091416, 21.375416 ], [ -158.098469, 21.369838 ], [ -158.102498, 21.366759 ], [ -158.104508, 21.362745 ], [ -158.12007, 21.357544 ], [ -158.126901, 21.356585 ], [ -158.128166, 21.356686 ] ] } },
{ "type": "Feature", "properties": { "kv": "138", "src": "HIFLD" }, "geometry": { "type": "LineString", "coordinates": [ [ -157.927246, 21.357504 ], [ -157.927282, 21.358063 ], [ -157.926009, 21.358391 ], [ -157.924855, 21.358402 ], [ -157.923427, 21.358682 ], [ -157.922309, 21.359586 ], [ -157.92072, 21.362198 ], [ -157.918977, 21.364066 ], [ -157.916705, 21.364732 ], [ -157.913915, 21.365083 ], [ -157.91423, 21.368366 ], [ -157.913826, 21.371168 ], [ -157.912148, 21.372162 ], [ -157.911732, 21.373708 ], [ -157.912351, 21.374535 ], [ -157.911417, 21.375154 ], [ -157.909769, 21.378009 ], [ -157.908306, 21.380121 ], [ -157.905123, 21.381477 ], [ -157.903975, 21.382536 ], [ -157.90056, 21.379907 ], [ -157.895641, 21.375487 ], [ -157.894588, 21.375891 ], [ -157.893404, 21.376052 ], [ -157.891191, 21.376742 ], [ -157.889193, 21.37726 ], [ -157.888074, 21.37795 ], [ -157.885939, 21.378533 ], [ -157.8835, 21.379889 ], [ -157.882639, 21.37954 ] ] } },
{ "type": "Feature", "properties": { "kv": "138", "src": "HIFLD" }, "geometry": { "type": "LineString", "coordinates": [ [ -158.103587, 21.30493 ], [ -158.103836, 21.305298 ], [ -158.103931, 21.306113 ], [ -158.104246, 21.306104 ], [ -158.105195, 21.311803 ], [ -158.10532, 21.313073 ], [ -158.106849, 21.315577 ], [ -158.106974, 21.32138 ], [ -158.102895, 21.325002 ], [ -158.102684, 21.325644 ], [ -158.102313, 21.326405 ], [ -158.10106, 21.328314 ], [ -158.100707, 21.329014 ], [ -158.097109, 21.328171 ], [ -158.097341, 21.327285 ], [ -158.096812, 21.327582 ] ] } },
{ "type": "Feature", "properties": { "kv": "46plus", "src": "HIFLD" }, "geometry": { "type": "LineString", "coordinates": [ [ -157.730141, 21.34195 ], [ -157.730051, 21.341709 ] ] } },
{ "type": "Feature", "properties": { "kv": "46plus", "src": "HIFLD" }, "geometry": { "type": "LineString", "coordinates": [ [ -157.75415, 21.428282 ], [ -157.75426, 21.42857 ], [ -157.743942, 21.428471 ], [ -157.744368, 21.426507 ], [ -157.744754, 21.425754 ], [ -157.748439, 21.421052 ] ] } },
{ "type": "Feature", "properties": { "kv": "138", "src": "HIFLD" }, "geometry": { "type": "LineString", "coordinates": [ [ -158.045737, 21.371959 ], [ -158.045574, 21.371556 ], [ -158.046022, 21.371091 ], [ -158.052149, 21.367117 ], [ -158.053304, 21.365338 ], [ -158.053833, 21.364214 ], [ -158.054505, 21.363209 ], [ -158.055011, 21.362602 ], [ -158.055076, 21.362025 ], [ -158.051917, 21.359134 ], [ -158.051097, 21.358051 ], [ -158.050377, 21.356873 ], [ -158.049818, 21.355636 ], [ -158.049431, 21.354321 ], [ -158.049217, 21.35309 ], [ -158.049175, 21.351781 ], [ -158.049258, 21.350491 ], [ -158.049514, 21.349194 ], [ -158.050186, 21.347052 ], [ -158.050775, 21.346219 ], [ -158.05259, 21.344102 ], [ -158.053185, 21.34318 ], [ -158.053476, 21.342091 ], [ -158.053434, 21.340967 ], [ -158.053054, 21.33986 ], [ -158.04867, 21.331598 ], [ -158.058531, 21.328148 ], [ -158.0709, 21.323983 ], [ -158.073142, 21.323258 ], [ -158.074112, 21.323079 ], [ -158.075206, 21.322984 ], [ -158.076366, 21.323002 ], [ -158.077455, 21.323151 ], [ -158.088603, 21.325946 ], [ -158.096223, 21.327951 ], [ -158.096812, 21.327582 ] ] } },
{ "type": "Feature", "properties": { "kv": "46plus", "src": "HIFLD" }, "geometry": { "type": "LineString", "coordinates": [ [ -158.006463, 21.471578 ], [ -158.006582, 21.471703 ] ] } },
{ "type": "Feature", "properties": { "kv": "46plus", "src": "HIFLD" }, "geometry": { "type": "LineString", "coordinates": [ [ -157.73202, 21.346232 ], [ -157.734966, 21.344915 ], [ -157.735639, 21.344704 ], [ -157.737351, 21.343884 ], [ -157.739596, 21.342494 ], [ -157.740076, 21.343051 ], [ -157.741552, 21.34298 ], [ -157.74365, 21.342113 ] ] } },
{ "type": "Feature", "properties": { "kv": "46plus", "src": "HIFLD" }, "geometry": { "type": "LineString", "coordinates": [ [ -157.971295, 21.686863 ], [ -157.970968, 21.687031 ], [ -157.968902, 21.684847 ], [ -157.964924, 21.679959 ], [ -157.95661, 21.68014 ], [ -157.955873, 21.679878 ], [ -157.953812, 21.678222 ], [ -157.953155, 21.677808 ], [ -157.952603, 21.677651 ], [ -157.948972, 21.677109 ], [ -157.948292, 21.676885 ], [ -157.947825, 21.67659 ], [ -157.947906, 21.676409 ] ] } },
{ "type": "Feature", "properties": { "kv": "138", "src": "HIFLD" }, "geometry": { "type": "LineString", "coordinates": [ [ -157.975765, 21.459405 ], [ -157.976283, 21.459587 ], [ -157.976393, 21.459239 ], [ -157.979331, 21.454275 ], [ -157.983839, 21.449217 ], [ -157.985931, 21.447873 ], [ -157.998666, 21.44521 ], [ -158.00659, 21.432304 ], [ -158.007925, 21.42947 ], [ -158.012358, 21.428014 ], [ -158.020613, 21.42716 ] ] } },
{ "type": "Feature", "properties": { "kv": "138", "src": "HIFLD" }, "geometry": { "type": "LineString", "coordinates": [ [ -157.960443, 21.389285 ], [ -157.959898, 21.389466 ], [ -157.937686, 21.379336 ], [ -157.936115, 21.378354 ], [ -157.934474, 21.377057 ], [ -157.933569, 21.376326 ], [ -157.933129, 21.375725 ], [ -157.932927, 21.375106 ], [ -157.932838, 21.374523 ], [ -157.932885, 21.373857 ], [ -157.934087, 21.371585 ], [ -157.934765, 21.370514 ], [ -157.936264, 21.367801 ], [ -157.93765, 21.364791 ], [ -157.938043, 21.36378 ], [ -157.938007, 21.363078 ], [ -157.935788, 21.352805 ], [ -157.935193, 21.35293 ], [ -157.934045, 21.352882 ], [ -157.933111, 21.352519 ], [ -157.931957, 21.352347 ], [ -157.931547, 21.354548 ], [ -157.931321, 21.355035 ], [ -157.931007, 21.355419 ], [ -157.930229, 21.354934 ], [ -157.928458, 21.357029 ], [ -157.927987, 21.357168 ], [ -157.927427, 21.357026 ], [ -157.927246, 21.357504 ] ] } },
{ "type": "Feature", "properties": { "kv": "138", "src": "HIFLD" }, "geometry": { "type": "LineString", "coordinates": [ [ -157.793945, 21.383856 ], [ -157.794326, 21.384168 ], [ -157.800849, 21.385159 ], [ -157.803288, 21.386153 ], [ -157.8075, 21.388419 ], [ -157.810694, 21.391334 ], [ -157.81189, 21.393493 ], [ -157.815025, 21.397455 ], [ -157.815667, 21.401209 ], [ -157.816197, 21.402125 ], [ -157.817642, 21.403475 ] ] } },
{ "type": "Feature", "properties": { "kv": "46plus", "src": "HIFLD" }, "geometry": { "type": "LineString", "coordinates": [ [ -157.798903, 21.400193 ], [ -157.79879, 21.399914 ] ] } },
{ "type": "Feature", "properties": { "kv": "46plus", "src": "HIFLD" }, "geometry": { "type": "LineString", "coordinates": [ [ -157.989571, 21.44647 ], [ -157.99833, 21.444149 ], [ -157.999145, 21.442955 ], [ -157.999745, 21.442439 ], [ -158.006055, 21.432164 ] ] } },
{ "type": "Feature", "properties": { "kv": "46plus", "src": "HIFLD" }, "geometry": { "type": "LineString", "coordinates": [ [ -157.732068, 21.346402 ], [ -157.73202, 21.346232 ] ] } },
{ "type": "Feature", "properties": { "kv": "46plus", "src": "HIFLD" }, "geometry": { "type": "LineString", "coordinates": [ [ -158.024502, 21.492528 ], [ -158.024604, 21.492636 ], [ -158.024846, 21.492536 ], [ -158.024725, 21.492284 ], [ -158.024718, 21.49197 ], [ -158.026911, 21.491473 ], [ -158.02846, 21.491411 ], [ -158.02889, 21.491332 ], [ -158.037383, 21.488939 ], [ -158.03865, 21.488773 ], [ -158.041921, 21.488915 ], [ -158.04294, 21.488975 ], [ -158.043818, 21.489462 ], [ -158.049338, 21.493693 ] ] } },
{ "type": "Feature", "properties": { "kv": "138", "src": "HIFLD" }, "geometry": { "type": "LineString", "coordinates": [ [ -157.755793, 21.410018 ], [ -157.756518, 21.40918 ], [ -157.757776, 21.410015 ], [ -157.760989, 21.40681 ], [ -157.764579, 21.405508 ], [ -157.768406, 21.402252 ], [ -157.771303, 21.400967 ], [ -157.773577, 21.398959 ] ] } },
{ "type": "Feature", "properties": { "kv": "138", "src": "HIFLD" }, "geometry": { "type": "LineString", "coordinates": [ [ -158.128166, 21.356686 ], [ -158.126913, 21.356234 ], [ -158.120425, 21.356969 ], [ -158.104021, 21.36197 ], [ -158.101546, 21.366273 ], [ -158.091604, 21.374026 ], [ -158.088298, 21.376709 ], [ -158.081167, 21.382725 ], [ -158.078168, 21.389285 ], [ -158.075372, 21.394587 ], [ -158.068359, 21.399566 ], [ -158.054309, 21.408486 ], [ -158.049436, 21.411465 ], [ -158.029544, 21.424088 ], [ -158.02622, 21.425272 ], [ -158.010211, 21.42677 ], [ -158.007956, 21.428428 ], [ -158.000686, 21.440244 ], [ -157.998472, 21.44125 ], [ -157.98246, 21.447875 ], [ -157.972292, 21.447803 ], [ -157.971429, 21.446697 ], [ -157.966457, 21.439519 ], [ -157.955877, 21.433246 ], [ -157.950527, 21.431465 ], [ -157.943285, 21.432567 ], [ -157.940956, 21.432434 ], [ -157.934348, 21.431291 ], [ -157.929692, 21.426658 ], [ -157.922869, 21.422607 ], [ -157.916129, 21.418336 ], [ -157.911907, 21.414868 ], [ -157.901875, 21.405481 ], [ -157.89585, 21.401381 ], [ -157.892742, 21.396819 ], [ -157.886644, 21.390605 ], [ -157.883803, 21.381639 ], [ -157.882639, 21.37954 ] ] } },
{ "type": "Feature", "properties": { "kv": "46plus", "src": "HIFLD" }, "geometry": { "type": "LineString", "coordinates": [ [ -157.729274, 21.380858 ], [ -157.728958, 21.38121 ], [ -157.729283, 21.382342 ], [ -157.729646, 21.382809 ], [ -157.730463, 21.383452 ], [ -157.730226, 21.383389 ], [ -157.729997, 21.383779 ], [ -157.729776, 21.384231 ], [ -157.729666, 21.38487 ], [ -157.729812, 21.385424 ], [ -157.730243, 21.389121 ], [ -157.730449, 21.389585 ] ] } },
{ "type": "Feature", "properties": { "kv": "138", "src": "HIFLD" }, "geometry": { "type": "LineString", "coordinates": [ [ -157.754542, 21.427247 ], [ -157.755667, 21.427602 ], [ -157.757742, 21.427697 ] ] } },
{ "type": "Feature", "properties": { "kv": "138", "src": "HIFLD" }, "geometry": { "type": "LineString", "coordinates": [ [ -157.961518, 21.388997 ], [ -157.960443, 21.389285 ] ] } },
{ "type": "Feature", "properties": { "kv": "138", "src": "HIFLD" }, "geometry": { "type": "LineString", "coordinates": [ [ -157.745634, 21.394568 ], [ -157.745817, 21.394462 ], [ -157.74602, 21.394771 ], [ -157.744639, 21.395602 ], [ -157.745961, 21.396841 ], [ -157.746349, 21.397393 ], [ -157.751782, 21.406947 ], [ -157.752498, 21.407973 ], [ -157.755097, 21.409829 ], [ -157.755486, 21.410061 ], [ -157.755793, 21.410018 ] ] } },
{ "type": "Feature", "properties": { "kv": "46plus", "src": "HIFLD" }, "geometry": { "type": "LineString", "coordinates": [ [ -158.106779, 21.576893 ], [ -158.106974, 21.577037 ], [ -158.10709, 21.576674 ], [ -158.107011, 21.575943 ], [ -158.10647, 21.575789 ], [ -158.106855, 21.574899 ], [ -158.106852, 21.574506 ], [ -158.109268, 21.568513 ], [ -158.10952, 21.568149 ], [ -158.109539, 21.56759 ], [ -158.109836, 21.566848 ], [ -158.110156, 21.566143 ], [ -158.110728, 21.565346 ], [ -158.103727, 21.559463 ], [ -158.102362, 21.557467 ], [ -158.102494, 21.556075 ], [ -158.100977, 21.554978 ], [ -158.100532, 21.553691 ], [ -158.096364, 21.550681 ], [ -158.094578, 21.549074 ], [ -158.091337, 21.548006 ], [ -158.090746, 21.547238 ], [ -158.090814, 21.546153 ], [ -158.09046, 21.544631 ], [ -158.089906, 21.543989 ], [ -158.089466, 21.542248 ], [ -158.086388, 21.538405 ], [ -158.086838, 21.5377 ], [ -158.087906, 21.535487 ], [ -158.085727, 21.534624 ], [ -158.085153, 21.534245 ], [ -158.083964, 21.532994 ], [ -158.083578, 21.53222 ], [ -158.083109, 21.531704 ], [ -158.082174, 21.531233 ], [ -158.081882, 21.530805 ], [ -158.08157, 21.529712 ], [ -158.080975, 21.528887 ], [ -158.079823, 21.528454 ], [ -158.065613, 21.515774 ], [ -158.063616, 21.514038 ], [ -158.057502, 21.50905 ], [ -158.056948, 21.508526 ], [ -158.053945, 21.504558 ], [ -158.051886, 21.502187 ], [ -158.049741, 21.500535 ], [ -158.04831, 21.498481 ], [ -158.046773, 21.495828 ], [ -158.046564, 21.495706 ] ] } },
{ "type": "Feature", "properties": { "kv": "138", "src": "HIFLD" }, "geometry": { "type": "LineString", "coordinates": [ [ -158.097043, 21.30214 ], [ -158.09762, 21.301928 ], [ -158.097752, 21.302509 ], [ -158.102245, 21.301925 ], [ -158.102257, 21.302999 ], [ -158.102511, 21.304442 ], [ -158.103427, 21.304347 ], [ -158.103587, 21.30493 ] ] } },
{ "type": "Feature", "properties": { "kv": "138", "src": "HIFLD" }, "geometry": { "type": "LineString", "coordinates": [ [ -158.024502, 21.492528 ], [ -158.024414, 21.491959 ], [ -158.022965, 21.488412 ], [ -158.007603, 21.490832 ], [ -158.005797, 21.49101 ], [ -157.999508, 21.489582 ], [ -157.994405, 21.487327 ], [ -157.989458, 21.485792 ], [ -157.984775, 21.485107 ], [ -157.98142, 21.485178 ], [ -157.978507, 21.483979 ], [ -157.97633, 21.480074 ], [ -157.976366, 21.47809 ], [ -157.97511, 21.473171 ], [ -157.974146, 21.466368 ], [ -157.976254, 21.459681 ], [ -157.975765, 21.459405 ] ] } },
{ "type": "Feature", "properties": { "kv": "138", "src": "HIFLD" }, "geometry": { "type": "LineString", "coordinates": [ [ -158.097043, 21.30214 ], [ -158.097257, 21.302505 ], [ -158.094788, 21.302809 ], [ -158.095247, 21.305638 ], [ -158.09284, 21.305982 ], [ -158.092852, 21.307261 ], [ -158.093824, 21.313385 ], [ -158.095015, 21.316304 ], [ -158.093689, 21.317351 ], [ -158.093701, 21.31791 ], [ -158.090109, 21.319207 ], [ -158.089598, 21.31976 ], [ -158.089344, 21.320468 ], [ -158.088316, 21.320368 ], [ -158.088081, 21.321645 ], [ -158.088912, 21.325762 ], [ -158.088579, 21.325893 ], [ -158.077451, 21.323105 ], [ -158.076366, 21.322942 ], [ -158.075218, 21.32293 ], [ -158.074106, 21.323014 ], [ -158.073083, 21.32321 ], [ -158.066212, 21.325453 ], [ -158.053845, 21.329688 ], [ -158.048612, 21.331578 ], [ -158.053013, 21.339926 ], [ -158.053377, 21.341021 ], [ -158.053425, 21.342113 ], [ -158.053141, 21.34315 ], [ -158.052551, 21.344093 ], [ -158.050733, 21.346191 ], [ -158.050151, 21.346998 ], [ -158.049846, 21.34792 ], [ -158.049463, 21.349185 ], [ -158.049206, 21.350479 ], [ -158.049118, 21.351786 ], [ -158.049163, 21.353085 ], [ -158.049387, 21.354372 ], [ -158.049775, 21.355674 ], [ -158.050339, 21.356929 ], [ -158.051049, 21.358106 ], [ -158.051898, 21.359188 ], [ -158.054996, 21.36204 ], [ -158.054943, 21.362593 ], [ -158.053778, 21.364203 ], [ -158.053232, 21.365331 ], [ -158.052116, 21.367079 ], [ -158.045966, 21.37107 ], [ -158.045335, 21.371719 ], [ -158.045737, 21.371959 ] ] } },
{ "type": "Feature", "properties": { "kv": "46plus", "src": "HIFLD" }, "geometry": { "type": "LineString", "coordinates": [ [ -158.014718, 21.523774 ], [ -158.015042, 21.523851 ], [ -158.01571, 21.523868 ], [ -158.016053, 21.522775 ], [ -158.016108, 21.522088 ], [ -158.017338, 21.521412 ], [ -158.017997, 21.521231 ], [ -158.018961, 21.521222 ], [ -158.02099, 21.520434 ], [ -158.021545, 21.520151 ], [ -158.024881, 21.519542 ], [ -158.028381, 21.519663 ], [ -158.029255, 21.519508 ], [ -158.030021, 21.519094 ], [ -158.030625, 21.518442 ], [ -158.030942, 21.517676 ], [ -158.031199, 21.516215 ], [ -158.032162, 21.514764 ], [ -158.03235, 21.514009 ], [ -158.032403, 21.513257 ], [ -158.032189, 21.512613 ], [ -158.030556, 21.51098 ], [ -158.030252, 21.510316 ], [ -158.030187, 21.509536 ], [ -158.029959, 21.508939 ], [ -158.029348, 21.508287 ], [ -158.03309, 21.505655 ], [ -158.033314, 21.505307 ], [ -158.031011, 21.503317 ], [ -158.029647, 21.502474 ], [ -158.028028, 21.500269 ], [ -158.027611, 21.499441 ], [ -158.027586, 21.498948 ], [ -158.027172, 21.497963 ], [ -158.02685, 21.497285 ], [ -158.026561, 21.497035 ], [ -158.024534, 21.49272 ], [ -158.024502, 21.492528 ] ] } },
{ "type": "Feature", "properties": { "kv": "46plus", "src": "HIFLD" }, "geometry": { "type": "LineString", "coordinates": [ [ -158.053762, 21.614041 ], [ -158.052707, 21.613664 ], [ -158.053867, 21.612956 ], [ -158.0574, 21.609958 ], [ -158.06273, 21.601464 ], [ -158.064426, 21.598995 ], [ -158.068429, 21.598828 ], [ -158.07022, 21.593956 ], [ -158.071433, 21.59288 ], [ -158.073872, 21.58912 ], [ -158.075663, 21.590435 ], [ -158.079868, 21.589608 ], [ -158.08148, 21.586604 ], [ -158.082765, 21.585152 ], [ -158.088119, 21.576467 ], [ -158.092926, 21.577621 ], [ -158.096679, 21.574415 ] ] } },
{ "type": "Feature", "properties": { "kv": "138", "src": "HIFLD" }, "geometry": { "type": "LineString", "coordinates": [ [ -158.128166, 21.356686 ], [ -158.12692, 21.356183 ], [ -158.120415, 21.35692 ], [ -158.103987, 21.361928 ], [ -158.101508, 21.36624 ], [ -158.091573, 21.373987 ], [ -158.088266, 21.37667 ], [ -158.081126, 21.382694 ], [ -158.078123, 21.389263 ], [ -158.075333, 21.394553 ], [ -158.068331, 21.399525 ], [ -158.054283, 21.408444 ], [ -158.04941, 21.411423 ], [ -158.029522, 21.424043 ], [ -158.026209, 21.425223 ], [ -158.010193, 21.426721 ], [ -158.007918, 21.428393 ], [ -158.000651, 21.440205 ], [ -157.998453, 21.441204 ], [ -157.98245, 21.447825 ], [ -157.972317, 21.447753 ], [ -157.971469, 21.446668 ], [ -157.966492, 21.439482 ], [ -157.955898, 21.4332 ], [ -157.950531, 21.431414 ], [ -157.943283, 21.432517 ], [ -157.940992, 21.432344 ], [ -157.938243, 21.430383 ], [ -157.937976, 21.429621 ], [ -157.939889, 21.41681 ], [ -157.942414, 21.415258 ], [ -157.943596, 21.414737 ], [ -157.94812, 21.413367 ], [ -157.951034, 21.408781 ], [ -157.953573, 21.404044 ], [ -157.958006, 21.398765 ], [ -157.959651, 21.396616 ], [ -157.96236, 21.39405 ], [ -157.963255, 21.391483 ], [ -157.960751, 21.390323 ], [ -157.960443, 21.389285 ] ] } },
{ "type": "Feature", "properties": { "kv": "46plus", "src": "HIFLD" }, "geometry": { "type": "LineString", "coordinates": [ [ -157.792599, 21.386398 ], [ -157.794225, 21.384443 ], [ -157.793945, 21.383856 ] ] } },
{ "type": "Feature", "properties": { "kv": "46plus", "src": "HIFLD" }, "geometry": { "type": "LineString", "coordinates": [ [ -157.778141, 21.375746 ], [ -157.780511, 21.375796 ], [ -157.782135, 21.375913 ], [ -157.783905, 21.377544 ], [ -157.786125, 21.380218 ], [ -157.789509, 21.383387 ], [ -157.79034, 21.383905 ], [ -157.790897, 21.383815 ], [ -157.793278, 21.383983 ], [ -157.793945, 21.383856 ] ] } },
{ "type": "Feature", "properties": { "kv": "46plus", "src": "HIFLD" }, "geometry": { "type": "LineString", "coordinates": [ [ -158.039676, 21.528207 ], [ -158.038966, 21.526034 ], [ -158.038604, 21.525332 ], [ -158.038026, 21.523253 ], [ -158.037986, 21.521627 ], [ -158.03815, 21.520828 ], [ -158.038669, 21.519303 ], [ -158.040441, 21.515368 ], [ -158.040594, 21.512767 ], [ -158.040366, 21.511982 ], [ -158.03998, 21.511339 ], [ -158.039217, 21.510354 ], [ -158.033741, 21.505664 ], [ -158.032611, 21.506285 ], [ -158.030142, 21.508012 ], [ -158.029952, 21.508305 ], [ -158.030423, 21.509571 ], [ -158.030472, 21.510312 ], [ -158.03082, 21.510972 ], [ -158.032097, 21.512186 ], [ -158.032502, 21.512761 ], [ -158.032635, 21.513434 ], [ -158.032513, 21.514624 ], [ -158.031888, 21.515303 ], [ -158.031301, 21.516253 ], [ -158.031302, 21.516895 ], [ -158.0311, 21.5178 ], [ -158.030739, 21.518578 ], [ -158.03017, 21.519182 ], [ -158.029411, 21.51961 ], [ -158.028557, 21.519815 ], [ -158.024997, 21.519687 ], [ -158.021019, 21.520491 ], [ -158.020736, 21.520681 ], [ -158.018949, 21.521343 ], [ -158.017286, 21.521545 ], [ -158.016241, 21.522178 ], [ -158.016196, 21.522792 ], [ -158.015846, 21.523965 ], [ -158.014558, 21.523986 ], [ -158.014497, 21.523823 ], [ -158.014718, 21.523774 ] ] } },
{ "type": "Feature", "properties": { "kv": "46plus", "src": "HIFLD" }, "geometry": { "type": "LineString", "coordinates": [ [ -158.039676, 21.528207 ], [ -158.045718, 21.54706 ], [ -158.046308, 21.548168 ], [ -158.047112, 21.549192 ], [ -158.048095, 21.550043 ], [ -158.049804, 21.550975 ], [ -158.051903, 21.552483 ] ] } },
{ "type": "Feature", "properties": { "kv": "46plus", "src": "HIFLD" }, "geometry": { "type": "LineString", "coordinates": [ [ -157.722556, 21.344803 ], [ -157.722602, 21.344958 ] ] } },
{ "type": "Feature", "properties": { "kv": "138", "src": "HIFLD" }, "geometry": { "type": "LineString", "coordinates": [ [ -158.096812, 21.327582 ], [ -158.096895, 21.326821 ], [ -158.10078, 21.327898 ], [ -158.102167, 21.324242 ], [ -158.106465, 21.320197 ], [ -158.103931, 21.314539 ], [ -158.103717, 21.313411 ], [ -158.103824, 21.312984 ], [ -158.10278, 21.30625 ], [ -158.103135, 21.30609 ], [ -158.103506, 21.30534 ], [ -158.103587, 21.30493 ] ] } },
{ "type": "Feature", "properties": { "kv": "138", "src": "HIFLD" }, "geometry": { "type": "LineString", "coordinates": [ [ -157.960443, 21.389285 ], [ -157.959932, 21.390309 ], [ -157.955877, 21.39168 ], [ -157.95375, 21.39118 ], [ -157.951508, 21.39098 ], [ -157.950452, 21.393336 ], [ -157.947183, 21.407627 ], [ -157.943385, 21.409625 ], [ -157.934805, 21.410725 ], [ -157.933122, 21.411637 ], [ -157.932052, 21.425705 ], [ -157.935966, 21.430354 ], [ -157.938713, 21.434768 ], [ -157.944635, 21.438377 ], [ -157.950899, 21.445087 ], [ -157.952345, 21.454564 ], [ -157.955973, 21.464135 ], [ -157.95965, 21.46934 ], [ -157.966496, 21.47649 ], [ -157.975057, 21.484664 ], [ -157.976413, 21.485372 ], [ -157.98066, 21.485758 ], [ -157.989175, 21.486364 ], [ -157.994681, 21.487912 ], [ -158.003693, 21.491945 ], [ -158.010903, 21.491136 ], [ -158.022402, 21.489661 ], [ -158.024073, 21.492076 ], [ -158.024502, 21.492528 ] ] } },
{ "type": "Feature", "properties": { "kv": "138", "src": "HIFLD" }, "geometry": { "type": "LineString", "coordinates": [ [ -157.750631, 21.423039 ], [ -157.750248, 21.42348 ], [ -157.750269, 21.423741 ], [ -157.750566, 21.424101 ], [ -157.752846, 21.426062 ], [ -157.753861, 21.426847 ], [ -157.754542, 21.427247 ] ] } },
{ "type": "Feature", "properties": { "kv": "46plus", "src": "HIFLD" }, "geometry": { "type": "LineString", "coordinates": [ [ -158.049338, 21.493693 ], [ -158.049494, 21.493478 ] ] } },
{ "type": "Feature", "properties": { "kv": "46plus", "src": "HIFLD" }, "geometry": { "type": "LineString", "coordinates": [ [ -158.069546, 21.502681 ], [ -158.068499, 21.501978 ], [ -158.067634, 21.501153 ], [ -158.068225, 21.500751 ], [ -158.067725, 21.500042 ], [ -158.070024, 21.497976 ], [ -158.070013, 21.497654 ] ] } },
{ "type": "Feature", "properties": { "kv": "46plus", "src": "HIFLD" }, "geometry": { "type": "LineString", "coordinates": [ [ -158.042939, 21.526511 ], [ -158.042763, 21.526468 ] ] } },
{ "type": "Feature", "properties": { "kv": "138", "src": "HIFLD" }, "geometry": { "type": "LineString", "coordinates": [ [ -157.793945, 21.383856 ], [ -157.79346, 21.38361 ], [ -157.793747, 21.381205 ], [ -157.794228, 21.375357 ], [ -157.788885, 21.371575 ], [ -157.783599, 21.370601 ], [ -157.777988, 21.368284 ], [ -157.774651, 21.360765 ], [ -157.770834, 21.351616 ], [ -157.769395, 21.340183 ], [ -157.772143, 21.333508 ], [ -157.775427, 21.326965 ], [ -157.779938, 21.321343 ], [ -157.783816, 21.320282 ], [ -157.784511, 21.317731 ], [ -157.787114, 21.313639 ], [ -157.786824, 21.31331 ], [ -157.786738, 21.31291 ] ] } },
{ "type": "Feature", "properties": { "kv": "46plus", "src": "HIFLD" }, "geometry": { "type": "LineString", "coordinates": [ [ -157.998818, 21.46325 ], [ -157.998783, 21.464108 ], [ -157.998936, 21.464467 ], [ -157.99878, 21.464572 ], [ -157.998736, 21.464388 ] ] } },
{ "type": "Feature", "properties": { "kv": "138", "src": "HIFLD" }, "geometry": { "type": "LineString", "coordinates": [ [ -157.786738, 21.31291 ], [ -157.786653, 21.312554 ], [ -157.786419, 21.312425 ], [ -157.783969, 21.311473 ], [ -157.778967, 21.316342 ], [ -157.778101, 21.320434 ], [ -157.775702, 21.324736 ], [ -157.774241, 21.326526 ], [ -157.77041, 21.33275 ], [ -157.768645, 21.33976 ], [ -157.767084, 21.342454 ], [ -157.766313, 21.344986 ], [ -157.764419, 21.349297 ], [ -157.770282, 21.352733 ], [ -157.77761, 21.368559 ], [ -157.783267, 21.371079 ], [ -157.789137, 21.372483 ], [ -157.790152, 21.377072 ], [ -157.791822, 21.378942 ], [ -157.7921, 21.380512 ], [ -157.79194, 21.382811 ], [ -157.793343, 21.383828 ], [ -157.793945, 21.383856 ] ] } },
{ "type": "Feature", "properties": { "kv": "138", "src": "HIFLD" }, "geometry": { "type": "LineString", "coordinates": [ [ -157.817642, 21.403475 ], [ -157.816845, 21.403927 ] ] } },
{ "type": "Feature", "properties": { "kv": "46plus", "src": "HIFLD" }, "geometry": { "type": "LineString", "coordinates": [ [ -158.106779, 21.576893 ], [ -158.105472, 21.576435 ], [ -158.096679, 21.574415 ] ] } },
{ "type": "Feature", "properties": { "kv": "46plus", "src": "HIFLD" }, "geometry": { "type": "LineString", "coordinates": [ [ -157.729274, 21.380858 ], [ -157.729104, 21.380671 ] ] } },
{ "type": "Feature", "properties": { "kv": "46plus", "src": "HIFLD" }, "geometry": { "type": "LineString", "coordinates": [ [ -157.73202, 21.346232 ], [ -157.730141, 21.34195 ] ] } },
{ "type": "Feature", "properties": { "kv": "46plus", "src": "HIFLD" }, "geometry": { "type": "LineString", "coordinates": [ [ -158.006463, 21.471578 ], [ -158.006695, 21.47139 ], [ -158.007047, 21.471287 ], [ -158.007355, 21.471291 ], [ -158.007579, 21.471436 ], [ -158.009092, 21.470501 ], [ -158.010278, 21.469586 ], [ -158.010387, 21.468481 ], [ -158.011453, 21.468237 ], [ -158.011693, 21.467944 ], [ -158.011615, 21.467408 ], [ -158.01167, 21.46679 ], [ -158.010975, 21.466863 ], [ -158.010492, 21.466633 ], [ -158.010223, 21.466119 ], [ -158.010387, 21.465514 ], [ -158.009773, 21.465129 ], [ -158.009233, 21.465067 ], [ -158.00812, 21.464789 ], [ -158.007318, 21.464693 ], [ -158.006521, 21.465245 ], [ -158.006235, 21.465264 ] ] } },
{ "type": "Feature", "properties": { "kv": "46plus", "src": "HIFLD" }, "geometry": { "type": "LineString", "coordinates": [ [ -158.049338, 21.493693 ], [ -158.050448, 21.494606 ], [ -158.050735, 21.495247 ], [ -158.052234, 21.5014 ], [ -158.052687, 21.502437 ], [ -158.053767, 21.504227 ], [ -158.055282, 21.503805 ], [ -158.060653, 21.505184 ], [ -158.061431, 21.505619 ], [ -158.066949, 21.505158 ], [ -158.069546, 21.502681 ] ] } },
{ "type": "Feature", "properties": { "kv": "138", "src": "HIFLD" }, "geometry": { "type": "LineString", "coordinates": [ [ -157.750631, 21.423039 ], [ -157.750783, 21.422907 ] ] } },
{ "type": "Feature", "properties": { "kv": "46plus", "src": "HIFLD" }, "geometry": { "type": "LineString", "coordinates": [ [ -157.795407, 21.400491 ], [ -157.795947, 21.401024 ], [ -157.796394, 21.400988 ], [ -157.79879, 21.399914 ] ] } },
{ "type": "Feature", "properties": { "kv": "138", "src": "HIFLD" }, "geometry": { "type": "LineString", "coordinates": [ [ -158.096812, 21.327582 ], [ -158.097029, 21.328155 ], [ -158.092192, 21.335519 ], [ -158.091615, 21.336798 ], [ -158.092317, 21.338333 ], [ -158.093596, 21.338785 ], [ -158.096499, 21.339386 ], [ -158.100111, 21.340671 ], [ -158.103184, 21.340978 ], [ -158.104158, 21.341609 ], [ -158.109055, 21.342484 ], [ -158.110569, 21.343587 ], [ -158.107895, 21.349616 ], [ -158.106796, 21.35252 ], [ -158.107548, 21.354667 ], [ -158.112794, 21.35612 ], [ -158.122264, 21.354138 ], [ -158.126022, 21.354726 ], [ -158.126894, 21.355215 ], [ -158.127691, 21.355486 ] ] } },
{ "type": "Feature", "properties": { "kv": "138", "src": "HIFLD" }, "geometry": { "type": "LineString", "coordinates": [ [ -157.86729, 21.317886 ], [ -157.867153, 21.318422 ], [ -157.87306, 21.321901 ], [ -157.874261, 21.3212 ], [ -157.875219, 21.320902 ], [ -157.87632, 21.32067 ], [ -157.877515, 21.320938 ], [ -157.882869, 21.326434 ], [ -157.881013, 21.328326 ], [ -157.883208, 21.330117 ], [ -157.885647, 21.331925 ], [ -157.887521, 21.332847 ], [ -157.889573, 21.333656 ], [ -157.888378, 21.334435 ], [ -157.887432, 21.335226 ], [ -157.888074, 21.335917 ], [ -157.888455, 21.337576 ], [ -157.8888, 21.338344 ], [ -157.889401, 21.338879 ], [ -157.891608, 21.339492 ], [ -157.899055, 21.342698 ], [ -157.899805, 21.341407 ], [ -157.90013, 21.340311 ], [ -157.900194, 21.339465 ], [ -157.901622, 21.33949 ], [ -157.901625, 21.337249 ], [ -157.902275, 21.336392 ], [ -157.90326, 21.33585 ], [ -157.911747, 21.337181 ], [ -157.914396, 21.337727 ], [ -157.918061, 21.338319 ], [ -157.927045, 21.339579 ], [ -157.928523, 21.340193 ], [ -157.929579, 21.34075 ], [ -157.930254, 21.341921 ], [ -157.932567, 21.346911 ], [ -157.932656, 21.348941 ], [ -157.931731, 21.352607 ], [ -157.931399, 21.354242 ], [ -157.931114, 21.354017 ], [ -157.930473, 21.354873 ], [ -157.930066, 21.354542 ], [ -157.929221, 21.354411 ], [ -157.927157, 21.356921 ], [ -157.927246, 21.357504 ] ] } },
{ "type": "Feature", "properties": { "kv": "46plus", "src": "HIFLD" }, "geometry": { "type": "LineString", "coordinates": [ [ -157.994541, 21.690398 ], [ -157.994339, 21.690184 ] ] } },
{ "type": "Feature", "properties": { "kv": "138", "src": "HIFLD" }, "geometry": { "type": "LineString", "coordinates": [ [ -158.128166, 21.356686 ], [ -158.126925, 21.356494 ], [ -158.12007, 21.357441 ], [ -158.111866, 21.360201 ], [ -158.104371, 21.362591 ], [ -158.102309, 21.366645 ], [ -158.081426, 21.383185 ], [ -158.079942, 21.386613 ], [ -158.075983, 21.394987 ], [ -158.061383, 21.40434 ], [ -158.05425, 21.408867 ], [ -158.046756, 21.413508 ], [ -158.026536, 21.426393 ], [ -158.012329, 21.42786 ], [ -158.007803, 21.429345 ], [ -158.006454, 21.4322 ], [ -157.998645, 21.445078 ], [ -157.984001, 21.448173 ], [ -157.97179, 21.448447 ], [ -157.966044, 21.439538 ], [ -157.96109, 21.440288 ], [ -157.956907, 21.441355 ], [ -157.95076, 21.445349 ], [ -157.944464, 21.438511 ], [ -157.938584, 21.43495 ], [ -157.931862, 21.432025 ], [ -157.925353, 21.42548 ], [ -157.919938, 21.423366 ], [ -157.915244, 21.421358 ], [ -157.908722, 21.416958 ], [ -157.899531, 21.406361 ], [ -157.894194, 21.402253 ], [ -157.891298, 21.397636 ], [ -157.88613, 21.390833 ], [ -157.88356, 21.382003 ], [ -157.882639, 21.37954 ] ] } },
{ "type": "Feature", "properties": { "kv": "46plus", "src": "HIFLD" }, "geometry": { "type": "LineString", "coordinates": [ [ -157.729104, 21.380671 ], [ -157.728842, 21.380741 ], [ -157.728503, 21.379363 ], [ -157.728432, 21.378337 ], [ -157.72851, 21.377534 ], [ -157.728718, 21.376639 ], [ -157.729097, 21.37578 ], [ -157.729551, 21.375049 ], [ -157.729981, 21.374522 ], [ -157.731002, 21.37362 ], [ -157.731741, 21.373191 ], [ -157.732328, 21.373006 ], [ -157.733353, 21.372475 ], [ -157.734073, 21.371988 ], [ -157.735102, 21.37117 ], [ -157.735668, 21.370569 ], [ -157.737, 21.36952 ], [ -157.739932, 21.367817 ] ] } },
{ "type": "Feature", "properties": { "kv": "46plus", "src": "HIFLD" }, "geometry": { "type": "LineString", "coordinates": [ [ -157.748439, 21.421052 ], [ -157.748109, 21.420597 ], [ -157.745709, 21.412233 ], [ -157.741958, 21.405862 ], [ -157.740724, 21.404006 ], [ -157.738214, 21.401174 ], [ -157.737765, 21.400737 ], [ -157.736334, 21.399726 ], [ -157.736242, 21.399512 ], [ -157.736869, 21.398212 ], [ -157.73714, 21.397995 ], [ -157.739858, 21.396567 ], [ -157.740168, 21.396633 ], [ -157.741536, 21.39588 ], [ -157.743261, 21.394851 ], [ -157.744222, 21.393991 ], [ -157.746619, 21.392486 ], [ -157.747033, 21.39215 ], [ -157.747395, 21.39166 ], [ -157.748157, 21.389881 ], [ -157.748472, 21.389432 ], [ -157.755696, 21.381517 ], [ -157.755848, 21.380803 ], [ -157.756702, 21.381312 ], [ -157.758264, 21.381984 ], [ -157.7636, 21.382089 ], [ -157.769139, 21.381575 ], [ -157.770023, 21.379109 ], [ -157.772028, 21.378074 ], [ -157.772905, 21.377922 ], [ -157.778141, 21.375746 ] ] } },
{ "type": "Feature", "properties": { "kv": "138", "src": "HIFLD" }, "geometry": { "type": "LineString", "coordinates": [ [ -158.020613, 21.42716 ], [ -158.020549, 21.427217 ], [ -158.020543, 21.427635 ], [ -158.020415, 21.427827 ] ] } },
{ "type": "Feature", "properties": { "kv": "46plus", "src": "HIFLD" }, "geometry": { "type": "LineString", "coordinates": [ [ -158.046564, 21.495706 ], [ -158.049494, 21.493478 ] ] } },
{ "type": "Feature", "properties": { "kv": "46plus", "src": "HIFLD" }, "geometry": { "type": "LineString", "coordinates": [ [ -157.998818, 21.46325 ], [ -157.99774, 21.462803 ], [ -157.994386, 21.461672 ], [ -157.990259, 21.457492 ], [ -157.989852, 21.456294 ], [ -157.989528, 21.455686 ], [ -157.98898, 21.455178 ], [ -157.989359, 21.453395 ], [ -157.988535, 21.452618 ], [ -157.989013, 21.449421 ], [ -157.989571, 21.44647 ] ] } },
{ "type": "Feature", "properties": { "kv": "138", "src": "HIFLD" }, "geometry": { "type": "LineString", "coordinates": [ [ -157.793945, 21.383856 ], [ -157.807693, 21.383389 ], [ -157.809823, 21.388302 ], [ -157.812643, 21.388297 ], [ -157.818889, 21.388611 ], [ -157.825195, 21.388765 ], [ -157.831107, 21.388029 ], [ -157.839055, 21.387855 ], [ -157.842295, 21.387655 ], [ -157.852439, 21.385756 ], [ -157.864325, 21.379415 ], [ -157.870021, 21.376921 ], [ -157.872286, 21.376731 ], [ -157.875351, 21.379948 ], [ -157.879694, 21.38186 ], [ -157.881652, 21.379072 ], [ -157.88228, 21.378882 ], [ -157.884031, 21.378901 ], [ -157.886239, 21.381775 ], [ -157.890713, 21.388114 ], [ -157.910336, 21.401011 ], [ -157.916389, 21.403992 ], [ -157.92789, 21.409834 ], [ -157.934789, 21.410676 ], [ -157.94337, 21.409577 ], [ -157.947139, 21.407593 ], [ -157.950404, 21.39332 ], [ -157.951477, 21.390927 ], [ -157.953758, 21.39113 ], [ -157.955875, 21.391628 ], [ -157.959896, 21.390268 ], [ -157.960443, 21.389285 ] ] } },
{ "type": "Feature", "properties": { "kv": "46plus", "src": "OSM" }, "geometry": { "type": "LineString", "coordinates": [ [ -157.772872, 21.399169 ], [ -157.776755, 21.400528 ], [ -157.778155, 21.403128 ] ] } },
{ "type": "Feature", "properties": { "kv": "46plus", "src": "OSM" }, "geometry": { "type": "LineString", "coordinates": [ [ -158.142852, 21.392737 ], [ -158.141722, 21.39096 ], [ -158.141052, 21.389737 ], [ -158.138952, 21.388238 ], [ -158.138556, 21.388042 ], [ -158.137853, 21.387538 ], [ -158.137553, 21.387238 ], [ -158.136757, 21.38684 ], [ -158.134753, 21.385338 ], [ -158.134353, 21.384938 ], [ -158.132552, 21.383742 ], [ -158.121953, 21.376241 ], [ -158.115471, 21.369918 ], [ -158.115377, 21.362012 ], [ -158.113813, 21.361986 ], [ -158.115405, 21.359635 ], [ -158.119843, 21.358424 ], [ -158.123164, 21.358234 ], [ -158.126485, 21.357845 ], [ -158.127738, 21.357423 ] ] } },
{ "type": "Feature", "properties": { "kv": "46plus", "src": "OSM" }, "geometry": { "type": "LineString", "coordinates": [ [ -157.766957, 21.294934 ], [ -157.764357, 21.300034 ], [ -157.762357, 21.302833 ] ] } },
{ "type": "Feature", "properties": { "kv": "46plus", "src": "OSM" }, "geometry": { "type": "LineString", "coordinates": [ [ -158.093748, 21.598325 ], [ -158.094048, 21.598625 ], [ -158.091648, 21.602825 ], [ -158.090601, 21.603335 ], [ -158.086303, 21.611339 ], [ -158.084303, 21.612754 ], [ -158.085247, 21.613924 ], [ -158.082547, 21.618424 ], [ -158.082086, 21.619344 ], [ -158.079647, 21.621024 ] ] } },
{ "type": "Feature", "properties": { "kv": "138", "src": "OSM" }, "geometry": { "type": "LineString", "coordinates": [ [ -158.128046, 21.356995 ], [ -158.126927, 21.356576 ], [ -158.120488, 21.357644 ], [ -158.10422, 21.362209 ], [ -158.10247, 21.366617 ], [ -158.091781, 21.374898 ], [ -158.081427, 21.383113 ], [ -158.076092, 21.395007 ], [ -158.039775, 21.418135 ], [ -158.029865, 21.424335 ], [ -158.026752, 21.426436 ], [ -158.020636, 21.427209 ], [ -158.018018, 21.427361 ], [ -158.014829, 21.427719 ], [ -158.012342, 21.427795 ], [ -158.007898, 21.429392 ], [ -158.006518, 21.432249 ], [ -157.998688, 21.445178 ], [ -157.985925, 21.447798 ], [ -157.982598, 21.450555 ], [ -157.97934, 21.454213 ], [ -157.976492, 21.459196 ], [ -157.976364, 21.4596 ], [ -157.975953, 21.459449 ] ] } },
{ "type": "Feature", "properties": { "kv": "138", "src": "OSM" }, "geometry": { "type": "LineString", "coordinates": [ [ -158.127985, 21.356766 ], [ -158.126872, 21.356277 ], [ -158.120486, 21.356787 ], [ -158.103649, 21.361566 ], [ -158.101564, 21.366131 ], [ -158.090227, 21.375051 ], [ -158.080959, 21.382559 ], [ -158.075311, 21.394505 ], [ -158.067097, 21.399954 ], [ -158.05912, 21.405389 ], [ -158.032325, 21.422401 ], [ -158.0296, 21.424007 ], [ -158.026308, 21.425216 ], [ -158.01388, 21.426368 ], [ -158.010225, 21.426631 ], [ -158.007969, 21.428418 ], [ -158.007605, 21.429163 ], [ -158.001439, 21.439093 ], [ -158.000653, 21.440184 ], [ -157.991562, 21.443983 ], [ -157.984997, 21.446598 ], [ -157.982493, 21.447811 ], [ -157.972314, 21.447814 ], [ -157.969615, 21.443876 ], [ -157.966463, 21.439527 ], [ -157.952141, 21.431186 ], [ -157.943625, 21.432297 ], [ -157.939196, 21.430949 ], [ -157.937905, 21.429629 ], [ -157.939604, 21.417144 ], [ -157.939881, 21.416598 ], [ -157.943153, 21.414792 ], [ -157.948277, 21.413319 ], [ -157.950985, 21.408866 ], [ -157.953573, 21.404018 ], [ -157.959625, 21.396672 ], [ -157.962353, 21.394124 ], [ -157.96323, 21.391533 ], [ -157.960708, 21.39038 ], [ -157.960639, 21.389604 ] ] } },
{ "type": "Feature", "properties": { "kv": "46plus", "src": "OSM" }, "geometry": { "type": "LineString", "coordinates": [ [ -157.677482, 21.316093 ], [ -157.678275, 21.317697 ], [ -157.678467, 21.317703 ] ] } },
{ "type": "Feature", "properties": { "kv": "46plus", "src": "OSM" }, "geometry": { "type": "LineString", "coordinates": [ [ -157.667681, 21.297318 ], [ -157.667912, 21.311795 ], [ -157.668777, 21.313589 ], [ -157.675726, 21.318261 ], [ -157.678515, 21.318189 ], [ -157.68168, 21.317794 ], [ -157.687094, 21.318511 ], [ -157.68953, 21.318187 ] ] } },
{ "type": "Feature", "properties": { "kv": "46plus", "src": "OSM" }, "geometry": { "type": "LineString", "coordinates": [ [ -157.689631, 21.317832 ], [ -157.687046, 21.317632 ], [ -157.68159, 21.317528 ], [ -157.67844, 21.317825 ], [ -157.675672, 21.317932 ], [ -157.669986, 21.31312 ], [ -157.670043, 21.306796 ], [ -157.669067, 21.298379 ], [ -157.668264, 21.297003 ], [ -157.668415, 21.296697 ] ] } },
{ "type": "Feature", "properties": { "kv": "138", "src": "OSM" }, "geometry": { "type": "LineString", "coordinates": [ [ -157.884469, 21.379014 ], [ -157.891162, 21.387604 ], [ -157.897815, 21.3928 ], [ -157.901388, 21.395058 ], [ -157.902714, 21.396181 ], [ -157.903822, 21.397876 ], [ -157.906462, 21.398316 ], [ -157.910343, 21.400976 ], [ -157.919243, 21.405558 ], [ -157.927858, 21.409853 ], [ -157.934831, 21.41074 ] ] } },
{ "type": "Feature", "properties": { "kv": "138", "src": "OSM" }, "geometry": { "type": "LineString", "coordinates": [ [ -157.985925, 21.447798 ], [ -157.983982, 21.448228 ], [ -157.971769, 21.448401 ], [ -157.966033, 21.439644 ], [ -157.963316, 21.439859 ], [ -157.956925, 21.441203 ], [ -157.950885, 21.445193 ], [ -157.944375, 21.438257 ], [ -157.938459, 21.434644 ], [ -157.935934, 21.430083 ], [ -157.932062, 21.425759 ], [ -157.932599, 21.417241 ], [ -157.933118, 21.411622 ], [ -157.934831, 21.41074 ] ] } },
{ "type": "Feature", "properties": { "kv": "46plus", "src": "OSM" }, "geometry": { "type": "LineString", "coordinates": [ [ -157.93166, 21.411484 ], [ -157.927066, 21.41017 ], [ -157.923656, 21.408228 ], [ -157.919044, 21.406844 ], [ -157.909948, 21.401345 ], [ -157.908116, 21.400096 ], [ -157.904669, 21.39924 ], [ -157.903346, 21.398155 ], [ -157.901688, 21.395848 ], [ -157.890358, 21.38829 ], [ -157.886051, 21.381913 ], [ -157.884827, 21.380307 ], [ -157.884182, 21.37958 ] ] } },
{ "type": "Feature", "properties": { "kv": "46plus", "src": "OSM" }, "geometry": { "type": "LineString", "coordinates": [ [ -158.104841, 21.57561 ], [ -158.103748, 21.579226 ], [ -158.101747, 21.584134 ], [ -158.097847, 21.59193 ], [ -158.096335, 21.593934 ], [ -158.093748, 21.598325 ] ] } },
{ "type": "Feature", "properties": { "kv": "46plus", "src": "OSM" }, "geometry": { "type": "LineString", "coordinates": [ [ -157.786967, 21.312992 ], [ -157.787373, 21.313348 ], [ -157.788276, 21.31206 ], [ -157.790188, 21.311315 ], [ -157.795113, 21.310485 ], [ -157.798917, 21.307857 ], [ -157.805185, 21.304585 ], [ -157.805813, 21.30221 ], [ -157.810858, 21.298505 ], [ -157.812425, 21.297439 ], [ -157.81406, 21.297239 ] ] } },
{ "type": "Feature", "properties": { "kv": "138", "src": "OSM" }, "geometry": { "type": "LineString", "coordinates": [ [ -157.959891, 21.389452 ], [ -157.950692, 21.385319 ], [ -157.937694, 21.379333 ], [ -157.936115, 21.378316 ], [ -157.933596, 21.376329 ], [ -157.933205, 21.375744 ], [ -157.932986, 21.375247 ], [ -157.932846, 21.374476 ], [ -157.93291, 21.373799 ], [ -157.934056, 21.37162 ], [ -157.934758, 21.370506 ], [ -157.936269, 21.367763 ], [ -157.937658, 21.364841 ], [ -157.938044, 21.363782 ], [ -157.937909, 21.362663 ], [ -157.935814, 21.353062 ], [ -157.934074, 21.352885 ], [ -157.933115, 21.352553 ], [ -157.93196, 21.35235 ] ] } },
{ "type": "Feature", "properties": { "kv": "46plus", "src": "OSM" }, "geometry": { "type": "LineString", "coordinates": [ [ -158.154858, 21.422065 ], [ -158.153995, 21.420328 ] ] } },
{ "type": "Feature", "properties": { "kv": "46plus", "src": "OSM" }, "geometry": { "type": "LineString", "coordinates": [ [ -158.154616, 21.421612 ], [ -158.154544, 21.421668 ], [ -158.154543, 21.421965 ] ] } },
{ "type": "Feature", "properties": { "kv": "46plus", "src": "OSM" }, "geometry": { "type": "LineString", "coordinates": [ [ -158.148261, 21.419915 ], [ -158.154858, 21.422065 ] ] } },
{ "type": "Feature", "properties": { "kv": "46plus", "src": "OSM" }, "geometry": { "type": "LineString", "coordinates": [ [ -158.070776, 21.369923 ], [ -158.069742, 21.370289 ], [ -158.068663, 21.371569 ], [ -158.065147, 21.37425 ], [ -158.064035, 21.375181 ], [ -158.059298, 21.374746 ], [ -158.057525, 21.373655 ], [ -158.054289, 21.372957 ] ] } },
{ "type": "Feature", "properties": { "kv": "138", "src": "OSM" }, "geometry": { "type": "LineString", "coordinates": [ [ -158.103864, 21.305312 ], [ -158.10393, 21.306057 ], [ -158.104253, 21.306045 ], [ -158.10538, 21.313057 ], [ -158.106869, 21.315558 ], [ -158.10696, 21.319637 ], [ -158.101845, 21.324601 ], [ -158.100657, 21.327984 ], [ -158.097167, 21.327059 ] ] } },
{ "type": "Feature", "properties": { "kv": "138", "src": "OSM" }, "geometry": { "type": "LineString", "coordinates": [ [ -158.104012, 21.304214 ], [ -158.107753, 21.303689 ] ] } },
{ "type": "Feature", "properties": { "kv": "138", "src": "OSM" }, "geometry": { "type": "LineString", "coordinates": [ [ -158.04771, 21.376597 ], [ -158.047826, 21.375432 ], [ -158.048233, 21.374518 ], [ -158.047343, 21.374095 ], [ -158.046251, 21.372522 ] ] } },
{ "type": "Feature", "properties": { "kv": "138", "src": "OSM" }, "geometry": { "type": "LineString", "coordinates": [ [ -158.045994, 21.371071 ], [ -158.052126, 21.367105 ], [ -158.052727, 21.366271 ], [ -158.053257, 21.365357 ], [ -158.053806, 21.364203 ], [ -158.054474, 21.363188 ], [ -158.054963, 21.3626 ], [ -158.05503, 21.362041 ], [ -158.052936, 21.360192 ], [ -158.051951, 21.359208 ], [ -158.051068, 21.358109 ], [ -158.050374, 21.356936 ], [ -158.04982, 21.355683 ], [ -158.049421, 21.35438 ], [ -158.049197, 21.353092 ], [ -158.049147, 21.351789 ], [ -158.049244, 21.350494 ], [ -158.049844, 21.347928 ], [ -158.050197, 21.347006 ], [ -158.050773, 21.3462 ], [ -158.052583, 21.344096 ], [ -158.053177, 21.343166 ], [ -158.053464, 21.342119 ], [ -158.05343, 21.341033 ], [ -158.053009, 21.339794 ], [ -158.048653, 21.331588 ], [ -158.072, 21.32356 ], [ -158.073123, 21.323237 ], [ -158.074146, 21.323046 ], [ -158.075217, 21.322962 ], [ -158.076408, 21.32298 ], [ -158.077479, 21.323108 ], [ -158.07864, 21.323362 ], [ -158.083167, 21.324603 ], [ -158.086701, 21.325406 ], [ -158.090318, 21.326457 ], [ -158.096242, 21.328019 ] ] } },
{ "type": "Feature", "properties": { "kv": "46plus", "src": "OSM" }, "geometry": { "type": "LineString", "coordinates": [ [ -157.753294, 21.343013 ], [ -157.751717, 21.341937 ], [ -157.7501, 21.339955 ], [ -157.746227, 21.334883 ], [ -157.740732, 21.332234 ], [ -157.735657, 21.330405 ], [ -157.730026, 21.329174 ], [ -157.721073, 21.331858 ], [ -157.716926, 21.328242 ], [ -157.717384, 21.327269 ], [ -157.70784, 21.323816 ], [ -157.69915, 21.323267 ], [ -157.695271, 21.320186 ], [ -157.68953, 21.318187 ] ] } },
{ "type": "Feature", "properties": { "kv": "46plus", "src": "OSM" }, "geometry": { "type": "LineString", "coordinates": [ [ -158.010618, 21.49591 ], [ -158.011011, 21.497143 ], [ -158.017357, 21.494593 ], [ -158.016606, 21.493017 ], [ -158.018303, 21.491768 ], [ -158.019963, 21.491212 ], [ -158.021999, 21.492669 ], [ -158.024454, 21.491661 ], [ -158.024733, 21.491888 ] ] } },
{ "type": "Feature", "properties": { "kv": "138", "src": "OSM" }, "geometry": { "type": "LineString", "coordinates": [ [ -158.024175, 21.492116 ], [ -158.022432, 21.489701 ], [ -158.020163, 21.489874 ], [ -158.010889, 21.49113 ], [ -158.003693, 21.491956 ], [ -157.993551, 21.487471 ], [ -157.991456, 21.486935 ], [ -157.984536, 21.485832 ], [ -157.97634, 21.48529 ], [ -157.975115, 21.484593 ], [ -157.972556, 21.482269 ], [ -157.966525, 21.476521 ], [ -157.959865, 21.469457 ], [ -157.956003, 21.464043 ], [ -157.954319, 21.4595 ], [ -157.952361, 21.454547 ], [ -157.950885, 21.445193 ] ] } },
{ "type": "Feature", "properties": { "kv": "46plus", "src": "OSM" }, "geometry": { "type": "LineString", "coordinates": [ [ -157.689631, 21.317832 ], [ -157.6938, 21.318895 ], [ -157.700903, 21.322736 ], [ -157.707697, 21.323478 ], [ -157.717463, 21.326896 ], [ -157.717988, 21.327988 ], [ -157.721282, 21.331415 ], [ -157.729989, 21.328712 ], [ -157.736469, 21.330011 ], [ -157.740637, 21.331365 ], [ -157.746425, 21.334464 ], [ -157.752577, 21.341507 ], [ -157.764886, 21.343706 ], [ -157.769746, 21.34416 ], [ -157.770799, 21.351723 ], [ -157.773714, 21.35874 ], [ -157.77509, 21.361786 ] ] } },
{ "type": "Feature", "properties": { "kv": "46plus", "src": "OSM" }, "geometry": { "type": "LineString", "coordinates": [ [ -157.9104, 21.381021 ], [ -157.910393, 21.381627 ], [ -157.912251, 21.382198 ] ] } },
{ "type": "Feature", "properties": { "kv": "46plus", "src": "OSM" }, "geometry": { "type": "LineString", "coordinates": [ [ -157.786763, 21.313244 ], [ -157.7872, 21.313665 ], [ -157.784498, 21.31775 ], [ -157.783646, 21.320694 ] ] } },
{ "type": "Feature", "properties": { "kv": "46plus", "src": "OSM" }, "geometry": { "type": "LineString", "coordinates": [ [ -157.999406, 21.482386 ], [ -158.001107, 21.48448 ], [ -158.002467, 21.484415 ], [ -158.003725, 21.483858 ], [ -158.005209, 21.482113 ], [ -158.006902, 21.481973 ], [ -158.007654, 21.486195 ], [ -158.010618, 21.49591 ] ] } },
{ "type": "Feature", "properties": { "kv": "46plus", "src": "OSM" }, "geometry": { "type": "LineString", "coordinates": [ [ -157.895616, 21.375399 ], [ -157.897392, 21.377233 ], [ -157.903731, 21.382604 ], [ -157.905459, 21.38142 ], [ -157.907209, 21.381551 ], [ -157.910245, 21.381549 ], [ -157.910325, 21.381033 ] ] } },
{ "type": "Feature", "properties": { "kv": "138", "src": "OSM" }, "geometry": { "type": "LineString", "coordinates": [ [ -157.949881, 21.395731 ], [ -157.950417, 21.393352 ], [ -157.951463, 21.390976 ], [ -157.953742, 21.391269 ], [ -157.955876, 21.391694 ], [ -157.959922, 21.390385 ], [ -157.960264, 21.389434 ] ] } },
{ "type": "Feature", "properties": { "kv": "138", "src": "OSM" }, "geometry": { "type": "LineString", "coordinates": [ [ -158.104012, 21.304214 ], [ -158.103502, 21.304573 ], [ -158.103458, 21.304796 ] ] } },
{ "type": "Feature", "properties": { "kv": "46plus", "src": "OSM" }, "geometry": { "type": "LineString", "coordinates": [ [ -158.079424, 21.621195 ], [ -158.078835, 21.620746 ], [ -158.076296, 21.620441 ] ] } },
{ "type": "Feature", "properties": { "kv": "46plus", "src": "OSM" }, "geometry": { "type": "LineString", "coordinates": [ [ -158.079647, 21.621024 ], [ -158.078972, 21.62063 ], [ -158.076311, 21.620297 ] ] } },
{ "type": "Feature", "properties": { "kv": "46plus", "src": "OSM" }, "geometry": { "type": "LineString", "coordinates": [ [ -158.079424, 21.621195 ], [ -158.070764, 21.627389 ], [ -158.065454, 21.6362 ], [ -158.064569, 21.636535 ], [ -158.063547, 21.638422 ] ] } },
{ "type": "Feature", "properties": { "kv": "46plus", "src": "OSM" }, "geometry": { "type": "LineString", "coordinates": [ [ -158.075998, 21.620408 ], [ -158.075652, 21.620345 ], [ -158.075397, 21.619936 ], [ -158.072506, 21.618976 ], [ -158.071044, 21.622442 ], [ -158.069461, 21.62241 ], [ -158.058526, 21.616782 ], [ -158.055632, 21.614982 ], [ -158.053481, 21.614348 ], [ -158.053564, 21.614126 ] ] } },
{ "type": "Feature", "properties": { "kv": "138", "src": "OSM" }, "geometry": { "type": "LineString", "coordinates": [ [ -157.931829, 21.352342 ], [ -157.932356, 21.350368 ], [ -157.932717, 21.348407 ] ] } },
{ "type": "Feature", "properties": { "kv": "138", "src": "OSM" }, "geometry": { "type": "LineString", "coordinates": [ [ -157.93196, 21.35235 ], [ -157.931511, 21.354538 ], [ -157.931334, 21.355022 ], [ -157.931016, 21.355406 ], [ -157.930385, 21.354973 ], [ -157.930035, 21.355126 ], [ -157.928451, 21.357044 ], [ -157.928014, 21.357182 ], [ -157.927409, 21.357039 ], [ -157.927276, 21.357472 ] ] } },
{ "type": "Feature", "properties": { "kv": "138", "src": "OSM" }, "geometry": { "type": "LineString", "coordinates": [ [ -157.927096, 21.357502 ], [ -157.92713, 21.356917 ], [ -157.929204, 21.354424 ], [ -157.930106, 21.354663 ], [ -157.930488, 21.354937 ], [ -157.931102, 21.354042 ], [ -157.93145, 21.3541 ], [ -157.931829, 21.352342 ] ] } },
{ "type": "Feature", "properties": { "kv": "138", "src": "OSM" }, "geometry": { "type": "LineString", "coordinates": [ [ -157.932717, 21.348407 ], [ -157.932456, 21.346651 ], [ -157.931722, 21.345143 ], [ -157.931001, 21.34341 ], [ -157.929587, 21.340723 ], [ -157.928543, 21.340054 ], [ -157.927088, 21.339497 ], [ -157.924681, 21.339148 ], [ -157.924504, 21.339027 ] ] } },
{ "type": "Feature", "properties": { "kv": "138", "src": "OSM" }, "geometry": { "type": "LineString", "coordinates": [ [ -157.924052, 21.338962 ], [ -157.923532, 21.338992 ], [ -157.916248, 21.338044 ], [ -157.910389, 21.336941 ], [ -157.903261, 21.335855 ], [ -157.902282, 21.336375 ], [ -157.901513, 21.33729 ], [ -157.901529, 21.339461 ], [ -157.900166, 21.339451 ], [ -157.900159, 21.34031 ], [ -157.899813, 21.341389 ], [ -157.89906, 21.342665 ], [ -157.89536, 21.341139 ], [ -157.892525, 21.339851 ], [ -157.891612, 21.339497 ], [ -157.89018, 21.339213 ], [ -157.889406, 21.338878 ], [ -157.888836, 21.338307 ], [ -157.888454, 21.337556 ], [ -157.888053, 21.335914 ], [ -157.887425, 21.335232 ], [ -157.888407, 21.33444 ], [ -157.88958, 21.333666 ], [ -157.887529, 21.332842 ], [ -157.885675, 21.331923 ], [ -157.883192, 21.330111 ], [ -157.881022, 21.328355 ], [ -157.882889, 21.326452 ], [ -157.877537, 21.320948 ], [ -157.876333, 21.320665 ], [ -157.875219, 21.320912 ], [ -157.874263, 21.321215 ], [ -157.87306, 21.321888 ], [ -157.867963, 21.318881 ], [ -157.867276, 21.318376 ], [ -157.867156, 21.31841 ], [ -157.867068, 21.318069 ], [ -157.867139, 21.318018 ] ] } },
{ "type": "Feature", "properties": { "kv": "138", "src": "OSM" }, "geometry": { "type": "LineString", "coordinates": [ [ -157.866952, 21.317848 ], [ -157.866855, 21.318488 ], [ -157.864445, 21.318524 ], [ -157.864018, 21.31865 ], [ -157.862538, 21.31971 ], [ -157.86067, 21.321127 ], [ -157.86041, 21.32245 ], [ -157.860468, 21.322696 ] ] } },
{ "type": "Feature", "properties": { "kv": "138", "src": "OSM" }, "geometry": { "type": "LineString", "coordinates": [ [ -157.860636, 21.322978 ], [ -157.860829, 21.323207 ], [ -157.862431, 21.325969 ], [ -157.864776, 21.330144 ], [ -157.86552, 21.331191 ], [ -157.869341, 21.33608 ], [ -157.869801, 21.33644 ], [ -157.868834, 21.337693 ], [ -157.868442, 21.338342 ], [ -157.868178, 21.339049 ], [ -157.868037, 21.339764 ], [ -157.867842, 21.343966 ], [ -157.867648, 21.345408 ], [ -157.866767, 21.346824 ], [ -157.86544, 21.347777 ], [ -157.866344, 21.349314 ], [ -157.867586, 21.349914 ], [ -157.864081, 21.35513 ], [ -157.862536, 21.357671 ], [ -157.862544, 21.35902 ], [ -157.861655, 21.361232 ], [ -157.867719, 21.371529 ], [ -157.871496, 21.377271 ], [ -157.875245, 21.380141 ], [ -157.878689, 21.381652 ], [ -157.881778, 21.378657 ], [ -157.882428, 21.379328 ] ] } },
{ "type": "Feature", "properties": { "kv": "138", "src": "OSM" }, "geometry": { "type": "LineString", "coordinates": [ [ -157.867052, 21.317939 ], [ -157.866873, 21.318184 ], [ -157.867276, 21.318376 ], [ -157.867558, 21.318626 ], [ -157.867423, 21.318923 ], [ -157.870476, 21.320693 ], [ -157.872536, 21.321976 ], [ -157.875229, 21.323448 ], [ -157.876417, 21.324365 ], [ -157.879347, 21.326922 ], [ -157.876333, 21.330052 ], [ -157.874056, 21.332003 ], [ -157.87627, 21.334976 ], [ -157.872033, 21.338057 ], [ -157.874718, 21.341417 ], [ -157.87495, 21.343051 ], [ -157.875521, 21.343981 ], [ -157.874239, 21.344832 ], [ -157.872677, 21.345477 ], [ -157.870855, 21.346466 ], [ -157.869597, 21.347722 ], [ -157.867852, 21.350849 ], [ -157.867089, 21.352058 ], [ -157.86322, 21.357294 ], [ -157.862677, 21.358127 ], [ -157.862479, 21.36069 ], [ -157.868335, 21.371148 ], [ -157.872062, 21.377069 ], [ -157.875171, 21.37933 ], [ -157.878633, 21.381192 ], [ -157.881406, 21.37859 ], [ -157.882495, 21.378242 ], [ -157.882932, 21.379288 ] ] } },
{ "type": "Feature", "properties": { "kv": "138", "src": "OSM" }, "geometry": { "type": "LineString", "coordinates": [ [ -158.04771, 21.376597 ], [ -158.046102, 21.377053 ], [ -158.044717, 21.377646 ], [ -158.043694, 21.378191 ], [ -158.040106, 21.37957 ], [ -158.035148, 21.382648 ], [ -158.032872, 21.383977 ], [ -158.031715, 21.384633 ], [ -158.027879, 21.386556 ], [ -158.02478, 21.38827 ], [ -158.023619, 21.389034 ], [ -158.022361, 21.389703 ], [ -158.020338, 21.390614 ], [ -158.01627, 21.39192 ], [ -158.015005, 21.392484 ], [ -158.013392, 21.39365 ], [ -158.011716, 21.395129 ], [ -158.01065, 21.39651 ], [ -158.008329, 21.397649 ], [ -158.004682, 21.399099 ], [ -158.002291, 21.399738 ], [ -158.000531, 21.399696 ], [ -157.993567, 21.39839 ], [ -157.992746, 21.399176 ], [ -157.991608, 21.40151 ], [ -157.989746, 21.401677 ], [ -157.988945, 21.402155 ], [ -157.985882, 21.399928 ], [ -157.984399, 21.398623 ] ] } },
{ "type": "Feature", "properties": { "kv": "138", "src": "OSM" }, "geometry": { "type": "LineString", "coordinates": [ [ -157.984399, 21.398623 ], [ -157.983909, 21.397831 ], [ -157.983727, 21.396806 ], [ -157.983182, 21.396345 ], [ -157.981933, 21.39642 ], [ -157.980923, 21.395725 ], [ -157.979598, 21.395426 ], [ -157.978059, 21.394795 ], [ -157.977958, 21.393574 ], [ -157.972348, 21.391232 ], [ -157.969776, 21.390306 ], [ -157.969659, 21.389646 ], [ -157.968106, 21.389469 ], [ -157.966549, 21.389488 ], [ -157.964975, 21.38985 ], [ -157.963324, 21.389023 ], [ -157.960178, 21.387607 ], [ -157.959696, 21.388672 ], [ -157.960048, 21.388997 ] ] } },
{ "type": "Feature", "properties": { "kv": "138", "src": "OSM" }, "geometry": { "type": "LineString", "coordinates": [ [ -157.984399, 21.398623 ], [ -157.983159, 21.398162 ], [ -157.980371, 21.397369 ], [ -157.97883, 21.396656 ], [ -157.966936, 21.392558 ], [ -157.964571, 21.391628 ], [ -157.962538, 21.390665 ], [ -157.964411, 21.38999 ], [ -157.963324, 21.389023 ] ] } },
{ "type": "Feature", "properties": { "kv": "138", "src": "OSM" }, "geometry": { "type": "LineString", "coordinates": [ [ -157.960095, 21.388908 ], [ -157.959789, 21.388647 ], [ -157.96022, 21.387694 ], [ -157.961751, 21.388353 ] ] } },
{ "type": "Feature", "properties": { "kv": "138", "src": "OSM" }, "geometry": { "type": "LineString", "coordinates": [ [ -158.096993, 21.32818 ], [ -158.096861, 21.328466 ], [ -158.09611, 21.328296 ], [ -158.095433, 21.330624 ], [ -158.092145, 21.33549 ], [ -158.091561, 21.336783 ], [ -158.092301, 21.338352 ], [ -158.093633, 21.338785 ], [ -158.096534, 21.339402 ], [ -158.10006, 21.340676 ], [ -158.103133, 21.340992 ], [ -158.104123, 21.341615 ], [ -158.10904, 21.342503 ], [ -158.110466, 21.343581 ], [ -158.107822, 21.349592 ], [ -158.106751, 21.352508 ], [ -158.107503, 21.35468 ], [ -158.112896, 21.356183 ], [ -158.122474, 21.354144 ], [ -158.125959, 21.354788 ], [ -158.126818, 21.355313 ] ] } },
{ "type": "Feature", "properties": { "kv": "46plus", "src": "OSM" }, "geometry": { "type": "LineString", "coordinates": [ [ -158.087137, 21.321259 ], [ -158.087853, 21.321353 ], [ -158.087859, 21.322023 ], [ -158.088623, 21.32581 ], [ -158.088595, 21.32593 ] ] } },
{ "type": "Feature", "properties": { "kv": "46plus", "src": "OSM" }, "geometry": { "type": "LineString", "coordinates": [ [ -158.0982, 21.302477 ], [ -158.102261, 21.301917 ] ] } },
{ "type": "Feature", "properties": { "kv": "46plus", "src": "OSM" }, "geometry": { "type": "LineString", "coordinates": [ [ -158.097223, 21.301971 ], [ -158.097646, 21.301928 ], [ -158.097819, 21.303058 ] ] } },
{ "type": "Feature", "properties": { "kv": "46plus", "src": "OSM" }, "geometry": { "type": "LineString", "coordinates": [ [ -158.104377, 21.306698 ], [ -158.10453, 21.306678 ] ] } },
{ "type": "Feature", "properties": { "kv": "46plus", "src": "OSM" }, "geometry": { "type": "LineString", "coordinates": [ [ -158.104327, 21.306396 ], [ -158.104522, 21.30645 ], [ -158.104528, 21.306539 ] ] } },
{ "type": "Feature", "properties": { "kv": "46plus", "src": "OSM" }, "geometry": { "type": "LineString", "coordinates": [ [ -158.104327, 21.306396 ], [ -158.104377, 21.306698 ] ] } },
{ "type": "Feature", "properties": { "kv": "46plus", "src": "OSM" }, "geometry": { "type": "LineString", "coordinates": [ [ -157.753294, 21.343013 ], [ -157.758325, 21.345951 ], [ -157.762063, 21.345715 ], [ -157.763143, 21.348764 ], [ -157.769956, 21.35287 ], [ -157.774593, 21.362113 ] ] } },
{ "type": "Feature", "properties": { "kv": "46plus", "src": "OSM" }, "geometry": { "type": "LineString", "coordinates": [ [ -157.774713, 21.362078 ], [ -157.770148, 21.352742 ], [ -157.764372, 21.349317 ], [ -157.766276, 21.344872 ], [ -157.766882, 21.342132 ], [ -157.76854, 21.339387 ], [ -157.770276, 21.332699 ], [ -157.775586, 21.324768 ], [ -157.778041, 21.320451 ], [ -157.778883, 21.316318 ], [ -157.783686, 21.311744 ], [ -157.786398, 21.312432 ] ] } },
{ "type": "Feature", "properties": { "kv": "46plus", "src": "OSM" }, "geometry": { "type": "LineString", "coordinates": [ [ -157.668301, 21.296602 ], [ -157.66823, 21.296807 ], [ -157.667681, 21.297318 ] ] } },
{ "type": "Feature", "properties": { "kv": "46plus", "src": "OSM" }, "geometry": { "type": "LineString", "coordinates": [ [ -158.115122, 21.333649 ], [ -158.115043, 21.333233 ], [ -158.114019, 21.3327 ], [ -158.11258, 21.332187 ], [ -158.097959, 21.328449 ] ] } },
{ "type": "Feature", "properties": { "kv": "138", "src": "OSM" }, "geometry": { "type": "LineString", "coordinates": [ [ -158.103509, 21.305153 ], [ -158.103528, 21.305283 ], [ -158.103127, 21.306086 ], [ -158.102779, 21.306188 ], [ -158.103871, 21.312971 ], [ -158.103705, 21.313731 ], [ -158.10397, 21.314533 ], [ -158.106203, 21.319413 ], [ -158.101185, 21.324266 ], [ -158.100008, 21.327677 ], [ -158.096911, 21.326886 ], [ -158.096778, 21.327342 ] ] } },
{ "type": "Feature", "properties": { "kv": "46plus", "src": "OSM" }, "geometry": { "type": "LineString", "coordinates": [ [ -158.109968, 21.342374 ], [ -158.109224, 21.342137 ], [ -158.106164, 21.341771 ], [ -158.104428, 21.341354 ], [ -158.100414, 21.340908 ] ] } },
{ "type": "Feature", "properties": { "kv": "46plus", "src": "OSM" }, "geometry": { "type": "LineString", "coordinates": [ [ -158.089136, 21.333939 ], [ -158.089285, 21.332732 ], [ -158.089194, 21.331884 ], [ -158.089659, 21.329318 ] ] } },
{ "type": "Feature", "properties": { "kv": "138", "src": "OSM" }, "geometry": { "type": "LineString", "coordinates": [ [ -157.975891, 21.459567 ], [ -157.976325, 21.459722 ], [ -157.974143, 21.466366 ], [ -157.97508, 21.473206 ], [ -157.976354, 21.478058 ], [ -157.976322, 21.479953 ], [ -157.977867, 21.4832 ], [ -157.978578, 21.484048 ], [ -157.986495, 21.485115 ], [ -157.99373, 21.487023 ], [ -157.998314, 21.489039 ], [ -158.003984, 21.490589 ], [ -158.009196, 21.490462 ], [ -158.010933, 21.490316 ], [ -158.023034, 21.488396 ], [ -158.024424, 21.492016 ] ] } },
{ "type": "Feature", "properties": { "kv": "46plus", "src": "OSM" }, "geometry": { "type": "LineString", "coordinates": [ [ -157.927317, 21.357603 ], [ -157.927281, 21.35802 ], [ -157.926027, 21.358324 ], [ -157.924856, 21.358383 ], [ -157.923457, 21.358666 ], [ -157.922351, 21.3596 ], [ -157.920732, 21.36219 ], [ -157.919012, 21.364071 ], [ -157.916718, 21.364756 ], [ -157.913896, 21.365118 ], [ -157.914233, 21.368387 ], [ -157.913861, 21.371194 ], [ -157.912202, 21.372149 ], [ -157.911841, 21.373823 ], [ -157.912411, 21.37456 ], [ -157.911482, 21.375192 ], [ -157.909854, 21.378018 ], [ -157.90882, 21.379498 ], [ -157.907876, 21.380483 ], [ -157.906643, 21.380871 ], [ -157.905459, 21.38142 ], [ -157.903731, 21.382604 ], [ -157.897392, 21.377233 ], [ -157.895616, 21.375399 ], [ -157.894674, 21.375928 ], [ -157.892503, 21.376339 ], [ -157.891302, 21.376771 ], [ -157.889121, 21.377375 ], [ -157.888241, 21.37806 ], [ -157.887071, 21.378247 ], [ -157.886091, 21.378563 ], [ -157.884275, 21.379537 ] ] } },
{ "type": "Feature", "properties": { "kv": "138", "src": "OSM" }, "geometry": { "type": "LineString", "coordinates": [ [ -157.927406, 21.357586 ], [ -157.927524, 21.3582 ], [ -157.927088, 21.358353 ], [ -157.928393, 21.363235 ], [ -157.928688, 21.364125 ], [ -157.930086, 21.367352 ], [ -157.930809, 21.369334 ], [ -157.931178, 21.370159 ], [ -157.931692, 21.370692 ], [ -157.933661, 21.371649 ], [ -157.932938, 21.372813 ], [ -157.93225, 21.373732 ], [ -157.93165, 21.375295 ], [ -157.930703, 21.376732 ], [ -157.930924, 21.377717 ], [ -157.930832, 21.380574 ], [ -157.931057, 21.38092 ], [ -157.931815, 21.381163 ], [ -157.933266, 21.381201 ], [ -157.9352, 21.381042 ], [ -157.936465, 21.381645 ], [ -157.937025, 21.382678 ], [ -157.937499, 21.383966 ], [ -157.938419, 21.385002 ], [ -157.939868, 21.385699 ], [ -157.945008, 21.387751 ], [ -157.945899, 21.388038 ], [ -157.946312, 21.38891 ], [ -157.946671, 21.390349 ], [ -157.94779, 21.390782 ], [ -157.950435, 21.390836 ], [ -157.95233, 21.390637 ], [ -157.955099, 21.390818 ], [ -157.956235, 21.391078 ], [ -157.958802, 21.390581 ], [ -157.959653, 21.39024 ], [ -157.960084, 21.389351 ] ] } },
{ "type": "Feature", "properties": { "kv": "138", "src": "OSM" }, "geometry": { "type": "LineString", "coordinates": [ [ -157.934831, 21.41074 ], [ -157.943344, 21.409655 ], [ -157.947207, 21.407618 ], [ -157.949881, 21.395731 ] ] } },
{ "type": "Feature", "properties": { "kv": "46plus", "src": "OSM" }, "geometry": { "type": "LineString", "coordinates": [ [ -157.93166, 21.411484 ], [ -157.943153, 21.414792 ] ] } },
{ "type": "Feature", "properties": { "kv": "46plus", "src": "OSM" }, "geometry": { "type": "LineString", "coordinates": [ [ -157.738871, 21.284381 ], [ -157.739039, 21.285805 ], [ -157.738461, 21.285857 ], [ -157.738268, 21.286095 ], [ -157.738322, 21.286596 ], [ -157.738502, 21.28713 ], [ -157.7389, 21.286943 ], [ -157.739274, 21.286904 ], [ -157.739691, 21.287021 ] ] } },
{ "type": "Feature", "properties": { "kv": "46plus", "src": "OSM" }, "geometry": { "type": "LineString", "coordinates": [ [ -157.805507, 21.40826 ], [ -157.804901, 21.408208 ], [ -157.804766, 21.408514 ], [ -157.803571, 21.408868 ] ] } },
{ "type": "Feature", "properties": { "kv": "46plus", "src": "OSM" }, "geometry": { "type": "LineString", "coordinates": [ [ -157.805507, 21.40826 ], [ -157.805542, 21.408748 ], [ -157.805712, 21.409092 ] ] } },
{ "type": "Feature", "properties": { "kv": "46plus", "src": "OSM" }, "geometry": { "type": "LineString", "coordinates": [ [ -157.805507, 21.40826 ], [ -157.805543, 21.407572 ] ] } },
{ "type": "Feature", "properties": { "kv": "46plus", "src": "OSM" }, "geometry": { "type": "LineString", "coordinates": [ [ -157.803571, 21.408868 ], [ -157.803043, 21.408546 ], [ -157.802777, 21.408193 ], [ -157.802673, 21.407759 ], [ -157.802891, 21.405973 ] ] } },
{ "type": "Feature", "properties": { "kv": "46plus", "src": "OSM" }, "geometry": { "type": "LineString", "coordinates": [ [ -157.726865, 21.335889 ], [ -157.7267, 21.335624 ], [ -157.726933, 21.335116 ], [ -157.727911, 21.334459 ], [ -157.72845, 21.33316 ], [ -157.728666, 21.333075 ], [ -157.730581, 21.333466 ], [ -157.73088, 21.333442 ] ] } },
{ "type": "Feature", "properties": { "kv": "46plus", "src": "OSM" }, "geometry": { "type": "LineString", "coordinates": [ [ -157.72845, 21.33316 ], [ -157.729707, 21.329946 ] ] } },
{ "type": "Feature", "properties": { "kv": "46plus", "src": "OSM" }, "geometry": { "type": "LineString", "coordinates": [ [ -157.726865, 21.335889 ], [ -157.726459, 21.33606 ] ] } },
{ "type": "Feature", "properties": { "kv": "46plus", "src": "OSM" }, "geometry": { "type": "LineString", "coordinates": [ [ -157.873195, 21.322374 ], [ -157.872492, 21.321999 ] ] } },
{ "type": "Feature", "properties": { "kv": "46plus", "src": "OSM" }, "geometry": { "type": "LineString", "coordinates": [ [ -157.872462, 21.322023 ], [ -157.873166, 21.322396 ] ] } },
{ "type": "Feature", "properties": { "kv": "46plus", "src": "OSM" }, "geometry": { "type": "LineString", "coordinates": [ [ -157.970766, 21.426915 ], [ -157.970788, 21.427082 ], [ -157.976706, 21.429468 ], [ -157.977709, 21.431307 ], [ -157.978554, 21.431275 ], [ -157.985204, 21.430541 ], [ -157.985618, 21.430083 ], [ -157.995342, 21.42885 ] ] } },
{ "type": "Feature", "properties": { "kv": "46plus", "src": "OSM" }, "geometry": { "type": "LineString", "coordinates": [ [ -157.991467, 21.428488 ], [ -157.993786, 21.42845 ], [ -157.994337, 21.428598 ], [ -157.995239, 21.428596 ] ] } },
{ "type": "Feature", "properties": { "kv": "46plus", "src": "OSM" }, "geometry": { "type": "LineString", "coordinates": [ [ -157.991282, 21.428496 ], [ -157.991356, 21.42825 ], [ -157.991859, 21.428236 ], [ -157.993765, 21.428231 ], [ -157.994437, 21.42847 ], [ -157.995239, 21.42842 ] ] } },
{ "type": "Feature", "properties": { "kv": "46plus", "src": "OSM" }, "geometry": { "type": "LineString", "coordinates": [ [ -157.988945, 21.402155 ], [ -157.989507, 21.4034 ], [ -157.989634, 21.403149 ], [ -157.989745, 21.403118 ] ] } },
{ "type": "Feature", "properties": { "kv": "138", "src": "OSM" }, "geometry": { "type": "LineString", "coordinates": [ [ -158.10427, 21.328401 ], [ -158.104231, 21.328506 ], [ -158.104016, 21.328475 ], [ -158.101963, 21.327954 ], [ -158.100828, 21.328184 ], [ -158.097371, 21.327293 ], [ -158.097085, 21.327643 ] ] } },
{ "type": "Feature", "properties": { "kv": "46plus", "src": "OSM" }, "geometry": { "type": "LineString", "coordinates": [ [ -157.78324, 21.305617 ], [ -157.784105, 21.306331 ], [ -157.783547, 21.311433 ], [ -157.783725, 21.311657 ], [ -157.786432, 21.312399 ] ] } },
{ "type": "Feature", "properties": { "kv": "46plus", "src": "OSM" }, "geometry": { "type": "LineString", "coordinates": [ [ -157.786479, 21.31236 ], [ -157.783837, 21.311639 ], [ -157.784301, 21.306465 ], [ -157.784709, 21.305625 ], [ -157.785376, 21.305055 ], [ -157.786408, 21.30506 ], [ -157.78811, 21.304535 ], [ -157.789019, 21.304634 ] ] } },
{ "type": "Feature", "properties": { "kv": "46plus", "src": "OSM" }, "geometry": { "type": "LineString", "coordinates": [ [ -157.78367, 21.311689 ], [ -157.783369, 21.311684 ], [ -157.78144, 21.310559 ], [ -157.780625, 21.309792 ], [ -157.780953, 21.30544 ], [ -157.780575, 21.303195 ], [ -157.780454, 21.299086 ], [ -157.781881, 21.297917 ], [ -157.781297, 21.295921 ], [ -157.781158, 21.295102 ], [ -157.781163, 21.293932 ], [ -157.781646, 21.292293 ], [ -157.781641, 21.291678 ], [ -157.782118, 21.289634 ], [ -157.782001, 21.288613 ] ] } },
{ "type": "Feature", "properties": { "kv": "46plus", "src": "OSM" }, "geometry": { "type": "LineString", "coordinates": [ [ -157.898332, 21.369134 ], [ -157.898806, 21.369419 ], [ -157.899627, 21.369097 ] ] } }
]
}
