{
"type": "FeatureCollection",
"name": "solar_osm",
"crs": { "type": "name", "properties": { "name": "urn:ogc:def:crs:OGC:1.3:CRS84" } },
"xy_coordinate_resolution": 1e-06,
"features": [
{ "type": "Feature", "properties": { "name": "Kapolei Solar Energy Park", "mw": "1 MW", "operator": "Altus Power America Management, LLC", "osm": "way/676139747", "acres": 7.1 }, "geometry": { "type": "Polygon", "coordinates": [ [ [ -158.105987, 21.316628 ], [ -158.105751, 21.31671 ], [ -158.105184, 21.316843 ], [ -158.104733, 21.316573 ], [ -158.104304, 21.316003 ], [ -158.104229, 21.315463 ], [ -158.104712, 21.315023 ], [ -158.105731, 21.315083 ], [ -158.106095, 21.316473 ], [ -158.105987, 21.316628 ] ] ] } },
{ "type": "Feature", "properties": { "name": "", "mw": "yes", "operator": "", "osm": "way/676597465", "acres": 5.6 }, "geometry": { "type": "Polygon", "coordinates": [ [ [ -158.085006, 21.314915 ], [ -158.085006, 21.314348 ], [ -158.084968, 21.314346 ], [ -158.084968, 21.314005 ], [ -158.087476, 21.31401 ], [ -158.087499, 21.31435 ], [ -158.087019, 21.31435 ], [ -158.087019, 21.314709 ], [ -158.086676, 21.314915 ], [ -158.085006, 21.314915 ] ] ] } },
{ "type": "Feature", "properties": { "name": "", "mw": "0.75 MW", "operator": "AES", "osm": "way/836926293", "acres": 2.4 }, "geometry": { "type": "Polygon", "coordinates": [ [ [ -157.98019, 21.693724 ], [ -157.97997, 21.693569 ], [ -157.97997, 21.692885 ], [ -157.980613, 21.692885 ], [ -157.981076, 21.693055 ], [ -157.981084, 21.693388 ], [ -157.980865, 21.693728 ], [ -157.98019, 21.693724 ] ] ] } },
{ "type": "Feature", "properties": { "name": "", "mw": "0.75 MW", "operator": "", "osm": "way/836926702", "acres": 2.4 }, "geometry": { "type": "Polygon", "coordinates": [ [ [ -158.028184, 21.671142 ], [ -158.027752, 21.670613 ], [ -158.028774, 21.669891 ], [ -158.029206, 21.67042 ], [ -158.028184, 21.671142 ] ] ] } },
{ "type": "Feature", "properties": { "name": "", "mw": "0.7 MW", "operator": "", "osm": "way/836927117", "acres": 2.4 }, "geometry": { "type": "Polygon", "coordinates": [ [ [ -158.087833, 21.609486 ], [ -158.086659, 21.60875 ], [ -158.086798, 21.608518 ], [ -158.086903, 21.608412 ], [ -158.087241, 21.608211 ], [ -158.088067, 21.609111 ], [ -158.087833, 21.609486 ] ] ] } },
{ "type": "Feature", "properties": { "name": "", "mw": "0.7 MW", "operator": "", "osm": "way/836927353", "acres": 2.0 }, "geometry": { "type": "Polygon", "coordinates": [ [ [ -158.087023, 21.539164 ], [ -158.086743, 21.538699 ], [ -158.086786, 21.538443 ], [ -158.087161, 21.538499 ], [ -158.0873, 21.538438 ], [ -158.087873, 21.538532 ], [ -158.087732, 21.53928 ], [ -158.087023, 21.539164 ] ] ] } },
{ "type": "Feature", "properties": { "name": "", "mw": "1.5 MW", "operator": "", "osm": "way/836930780", "acres": 4.9 }, "geometry": { "type": "Polygon", "coordinates": [ [ [ -158.13931, 21.417394 ], [ -158.139685, 21.416907 ], [ -158.139866, 21.417028 ], [ -158.140401, 21.416334 ], [ -158.141267, 21.41695 ], [ -158.140414, 21.418131 ], [ -158.13931, 21.417394 ] ] ] } },
{ "type": "Feature", "properties": { "name": "", "mw": "yes", "operator": "", "osm": "way/836930781", "acres": 2.1 }, "geometry": { "type": "Polygon", "coordinates": [ [ [ -158.146163, 21.405032 ], [ -158.145826, 21.404779 ], [ -158.145594, 21.405025 ], [ -158.145269, 21.404813 ], [ -158.145273, 21.404332 ], [ -158.145346, 21.404105 ], [ -158.145468, 21.403972 ], [ -158.146464, 21.404673 ], [ -158.146163, 21.405032 ] ] ] } },
{ "type": "Feature", "properties": { "name": "", "mw": "yes", "operator": "", "osm": "way/836930782", "acres": 1.8 }, "geometry": { "type": "Polygon", "coordinates": [ [ [ -158.151862, 21.40981 ], [ -158.151381, 21.409493 ], [ -158.151876, 21.408736 ], [ -158.152572, 21.408741 ], [ -158.151862, 21.40981 ] ] ] } },
{ "type": "Feature", "properties": { "name": "", "mw": "yes", "operator": "", "osm": "way/836930783", "acres": 1.0 }, "geometry": { "type": "Polygon", "coordinates": [ [ [ -158.158944, 21.410221 ], [ -158.158473, 21.410788 ], [ -158.158064, 21.410494 ], [ -158.158536, 21.409927 ], [ -158.158944, 21.410221 ] ] ] } },
{ "type": "Feature", "properties": { "name": "", "mw": "yes", "operator": "", "osm": "way/836930784", "acres": 1.5 }, "geometry": { "type": "Polygon", "coordinates": [ [ [ -158.161287, 21.410677 ], [ -158.161028, 21.410479 ], [ -158.160656, 21.4109 ], [ -158.160359, 21.410673 ], [ -158.161046, 21.409892 ], [ -158.161604, 21.410318 ], [ -158.161287, 21.410677 ] ] ] } },
{ "type": "Feature", "properties": { "name": "", "mw": "yes", "operator": "", "osm": "way/836930785", "acres": 2.2 }, "geometry": { "type": "Polygon", "coordinates": [ [ [ -158.155735, 21.440994 ], [ -158.157221, 21.440717 ], [ -158.157291, 21.441017 ], [ -158.157017, 21.441306 ], [ -158.155843, 21.441529 ], [ -158.155735, 21.440994 ] ] ] } },
{ "type": "Feature", "properties": { "name": "", "mw": "yes", "operator": "", "osm": "way/836930786", "acres": 2.1 }, "geometry": { "type": "Polygon", "coordinates": [ [ [ -158.16953, 21.436605 ], [ -158.170178, 21.43585 ], [ -158.170553, 21.436147 ], [ -158.170546, 21.436624 ], [ -158.170146, 21.437099 ], [ -158.16953, 21.436605 ] ] ] } },
{ "type": "Feature", "properties": { "name": "Eurus Waianae Solar Project", "mw": "27.6 MW", "operator": "Eurus Energy America", "osm": "way/836930787", "acres": 143.8 }, "geometry": { "type": "Polygon", "coordinates": [ [ [ -158.197691, 21.460562 ], [ -158.197235, 21.460552 ], [ -158.196677, 21.460642 ], [ -158.196006, 21.460647 ], [ -158.195996, 21.460268 ], [ -158.195733, 21.460268 ], [ -158.195733, 21.460083 ], [ -158.195588, 21.460083 ], [ -158.195577, 21.459863 ], [ -158.194467, 21.459863 ], [ -158.194456, 21.459669 ], [ -158.193442, 21.459674 ], [ -158.193432, 21.459474 ], [ -158.192418, 21.459474 ], [ -158.192396, 21.459284 ], [ -158.189365, 21.459259 ], [ -158.189365, 21.459674 ], [ -158.188877, 21.459674 ], [ -158.188866, 21.459873 ], [ -158.188351, 21.459873 ], [ -158.188346, 21.460063 ], [ -158.187279, 21.460073 ], [ -158.187268, 21.460388 ], [ -158.187102, 21.460388 ], [ -158.187091, 21.460567 ], [ -158.18678, 21.460567 ], [ -158.186769, 21.460962 ], [ -158.185669, 21.460972 ], [ -158.185664, 21.458595 ], [ -158.186211, 21.45858 ], [ -158.186211, 21.458391 ], [ -158.18671, 21.458391 ], [ -158.186716, 21.458218 ], [ -158.18796, 21.458246 ], [ -158.187967, 21.45807 ], [ -158.188123, 21.458057 ], [ -158.188242, 21.457273 ], [ -158.186892, 21.455699 ], [ -158.186408, 21.455496 ], [ -158.185829, 21.455114 ], [ -158.185573, 21.454871 ], [ -158.1852, 21.454139 ], [ -158.185191, 21.453919 ], [ -158.186118, 21.452416 ], [ -158.186728, 21.452413 ], [ -158.187125, 21.45268 ], [ -158.187547, 21.452198 ], [ -158.188254, 21.452209 ], [ -158.189369, 21.453044 ], [ -158.190423, 21.453878 ], [ -158.19049, 21.453964 ], [ -158.190506, 21.454894 ], [ -158.191766, 21.454896 ], [ -158.192783, 21.455699 ], [ -158.192836, 21.455779 ], [ -158.192867, 21.456167 ], [ -158.193584, 21.456689 ], [ -158.193584, 21.458062 ], [ -158.197693, 21.458064 ], [ -158.197691, 21.460562 ] ] ] } },
{ "type": "Feature", "properties": { "name": "", "mw": "yes", "operator": "", "osm": "way/836930789", "acres": 1.9 }, "geometry": { "type": "Polygon", "coordinates": [ [ [ -158.196384, 21.457279 ], [ -158.196379, 21.456303 ], [ -158.197081, 21.456299 ], [ -158.197087, 21.457275 ], [ -158.196384, 21.457279 ] ] ] } },
{ "type": "Feature", "properties": { "name": "", "mw": "yes", "operator": "", "osm": "way/836930790", "acres": 4.1 }, "geometry": { "type": "Polygon", "coordinates": [ [ [ -158.201087, 21.461881 ], [ -158.201491, 21.461387 ], [ -158.20123, 21.46119 ], [ -158.201652, 21.460749 ], [ -158.202576, 21.46145 ], [ -158.20217, 21.462115 ], [ -158.20216, 21.462684 ], [ -158.201087, 21.461881 ] ] ] } },
{ "type": "Feature", "properties": { "name": "", "mw": "yes", "operator": "", "osm": "way/836930791", "acres": 0.7 }, "geometry": { "type": "Polygon", "coordinates": [ [ [ -158.203968, 21.467996 ], [ -158.203925, 21.467859 ], [ -158.204273, 21.467411 ], [ -158.204557, 21.4675 ], [ -158.204409, 21.467867 ], [ -158.20419, 21.468082 ], [ -158.203968, 21.467996 ] ] ] } },
{ "type": "Feature", "properties": { "name": "", "mw": "yes", "operator": "", "osm": "way/836930792", "acres": 2.0 }, "geometry": { "type": "Polygon", "coordinates": [ [ [ -158.205713, 21.471849 ], [ -158.205576, 21.471475 ], [ -158.204559, 21.471774 ], [ -158.2045, 21.471652 ], [ -158.204417, 21.471677 ], [ -158.204361, 21.471574 ], [ -158.204825, 21.471402 ], [ -158.205793, 21.470888 ], [ -158.206112, 21.471724 ], [ -158.205713, 21.471849 ] ] ] } },
{ "type": "Feature", "properties": { "name": "", "mw": "yes", "operator": "", "osm": "way/836930793", "acres": 1.8 }, "geometry": { "type": "Polygon", "coordinates": [ [ [ -158.152935, 21.45185 ], [ -158.15215, 21.452006 ], [ -158.152104, 21.451804 ], [ -158.153742, 21.451479 ], [ -158.153863, 21.452009 ], [ -158.15301, 21.452178 ], [ -158.152935, 21.45185 ] ] ] } },
{ "type": "Feature", "properties": { "name": "", "mw": "yes", "operator": "", "osm": "way/836930794", "acres": 1.6 }, "geometry": { "type": "Polygon", "coordinates": [ [ [ -158.148572, 21.445537 ], [ -158.148405, 21.444726 ], [ -158.149074, 21.444607 ], [ -158.149241, 21.445417 ], [ -158.148572, 21.445537 ] ] ] } },
{ "type": "Feature", "properties": { "name": "", "mw": "yes", "operator": "", "osm": "way/836930795", "acres": 3.2 }, "geometry": { "type": "Polygon", "coordinates": [ [ [ -158.146937, 21.445813 ], [ -158.146745, 21.444929 ], [ -158.147021, 21.444877 ], [ -158.14689, 21.444272 ], [ -158.14754, 21.444149 ], [ -158.147671, 21.444755 ], [ -158.147543, 21.444885 ], [ -158.147712, 21.445667 ], [ -158.146937, 21.445813 ] ] ] } },
{ "type": "Feature", "properties": { "name": "West Loch Solar One", "mw": "20 MW", "operator": "Hawaiian Electric Company", "osm": "way/836931513", "acres": 100.9 }, "geometry": { "type": "Polygon", "coordinates": [ [ [ -158.006579, 21.337924 ], [ -158.005598, 21.337559 ], [ -158.004572, 21.337251 ], [ -158.004366, 21.336395 ], [ -158.009681, 21.334594 ], [ -158.010413, 21.334961 ], [ -158.012206, 21.336041 ], [ -158.013671, 21.337133 ], [ -158.013684, 21.337707 ], [ -158.014071, 21.33805 ], [ -158.014059, 21.339296 ], [ -158.015177, 21.340147 ], [ -158.014757, 21.340604 ], [ -158.014645, 21.340522 ], [ -158.011533, 21.341035 ], [ -158.010517, 21.340192 ], [ -158.009462, 21.339441 ], [ -158.008164, 21.338666 ], [ -158.007342, 21.338258 ], [ -158.006579, 21.337924 ] ] ] } },
{ "type": "Feature", "properties": { "name": "Waipio Peninsula", "mw": "11 MW", "operator": "Pacific Energy Solutions, LLC", "osm": "way/836931515", "acres": 41.4 }, "geometry": { "type": "Polygon", "coordinates": [ [ [ -157.985716, 21.365013 ], [ -157.987004, 21.368875 ], [ -157.98717, 21.369294 ], [ -157.987447, 21.369736 ], [ -157.988384, 21.370815 ], [ -157.989345, 21.372663 ], [ -157.988329, 21.372674 ], [ -157.988094, 21.372244 ], [ -157.988027, 21.37179 ], [ -157.987916, 21.37144 ], [ -157.98754, 21.370677 ], [ -157.986905, 21.369954 ], [ -157.986196, 21.368916 ], [ -157.986079, 21.368795 ], [ -157.985851, 21.368784 ], [ -157.985722, 21.368365 ], [ -157.985519, 21.368066 ], [ -157.985143, 21.367745 ], [ -157.984212, 21.367102 ], [ -157.983658, 21.366442 ], [ -157.983411, 21.366018 ], [ -157.983189, 21.365754 ], [ -157.9829, 21.36565 ], [ -157.982622, 21.365392 ], [ -157.982197, 21.365151 ], [ -157.984557, 21.363527 ], [ -157.98558, 21.363475 ], [ -157.985716, 21.365013 ] ] ] } },
{ "type": "Feature", "properties": { "name": "Waihonu South Solar", "mw": "1.5 MW", "operator": "Waihonu South LLC", "osm": "way/865515553", "acres": 5.5 }, "geometry": { "type": "Polygon", "coordinates": [ [ [ -158.01746, 21.468435 ], [ -158.016425, 21.469896 ], [ -158.015719, 21.470093 ], [ -158.015239, 21.470105 ], [ -158.015226, 21.469866 ], [ -158.0161, 21.468655 ], [ -158.016521, 21.468648 ], [ -158.016851, 21.468208 ], [ -158.01746, 21.468435 ] ] ] } },
{ "type": "Feature", "properties": { "name": "Kalaeloa Renewable Energy Park", "mw": "5 MW", "operator": "Hanwha Q CELLS USA", "osm": "way/865515560", "acres": 19.7 }, "geometry": { "type": "Polygon", "coordinates": [ [ [ -158.044344, 21.325218 ], [ -158.043381, 21.325236 ], [ -158.04322, 21.325098 ], [ -158.04321, 21.324303 ], [ -158.043563, 21.324205 ], [ -158.043556, 21.320543 ], [ -158.045026, 21.320556 ], [ -158.045028, 21.324535 ], [ -158.044344, 21.325218 ] ] ] } },
{ "type": "Feature", "properties": { "name": "Kalaeloa Solar Two", "mw": "5 MW", "operator": "Kalaeloa Solar Two LLC", "osm": "way/865515561", "acres": 27.4 }, "geometry": { "type": "Polygon", "coordinates": [ [ [ -158.087624, 21.316218 ], [ -158.087844, 21.318652 ], [ -158.087854, 21.319056 ], [ -158.087801, 21.319901 ], [ -158.087562, 21.32112 ], [ -158.085706, 21.321125 ], [ -158.085706, 21.31762 ], [ -158.085878, 21.317607 ], [ -158.085854, 21.316913 ], [ -158.085985, 21.316808 ], [ -158.085982, 21.31648 ], [ -158.086551, 21.31622 ], [ -158.087624, 21.316218 ] ] ] } },
{ "type": "Feature", "properties": { "name": "", "mw": "yes", "operator": "", "osm": "way/907276833", "acres": 1.5 }, "geometry": { "type": "Polygon", "coordinates": [ [ [ -158.057588, 21.460137 ], [ -158.057762, 21.459659 ], [ -158.058021, 21.459741 ], [ -158.058066, 21.459617 ], [ -158.058638, 21.459797 ], [ -158.05842, 21.460398 ], [ -158.057588, 21.460137 ] ] ] } },
{ "type": "Feature", "properties": { "name": "", "mw": "yes", "operator": "", "osm": "way/910985538", "acres": 1.8 }, "geometry": { "type": "Polygon", "coordinates": [ [ [ -158.179458, 21.448731 ], [ -158.179304, 21.448178 ], [ -158.179385, 21.448038 ], [ -158.179706, 21.44777 ], [ -158.180015, 21.447709 ], [ -158.180235, 21.448557 ], [ -158.179458, 21.448731 ] ] ] } },
{ "type": "Feature", "properties": { "name": "", "mw": "yes", "operator": "", "osm": "way/910985539", "acres": 2.1 }, "geometry": { "type": "Polygon", "coordinates": [ [ [ -158.186752, 21.452207 ], [ -158.187011, 21.451924 ], [ -158.187014, 21.451727 ], [ -158.186577, 21.451397 ], [ -158.186808, 21.451055 ], [ -158.187747, 21.451742 ], [ -158.187117, 21.452494 ], [ -158.186752, 21.452207 ] ] ] } },
{ "type": "Feature", "properties": { "name": "", "mw": "yes", "operator": "", "osm": "way/910999125", "acres": 1.5 }, "geometry": { "type": "Polygon", "coordinates": [ [ [ -158.15544, 21.45525 ], [ -158.15529, 21.455252 ], [ -158.155276, 21.454668 ], [ -158.156279, 21.454428 ], [ -158.156287, 21.454865 ], [ -158.15544, 21.45525 ] ] ] } },
{ "type": "Feature", "properties": { "name": "", "mw": "yes", "operator": "", "osm": "way/910999126", "acres": 1.9 }, "geometry": { "type": "Polygon", "coordinates": [ [ [ -158.170283, 21.42193 ], [ -158.170159, 21.421152 ], [ -158.171013, 21.421033 ], [ -158.171138, 21.421812 ], [ -158.170283, 21.42193 ] ] ] } },
{ "type": "Feature", "properties": { "name": "", "mw": "yes", "operator": "", "osm": "way/910999127", "acres": 1.8 }, "geometry": { "type": "Polygon", "coordinates": [ [ [ -158.170054, 21.423453 ], [ -158.169833, 21.422048 ], [ -158.170284, 21.421987 ], [ -158.170505, 21.423391 ], [ -158.170054, 21.423453 ] ] ] } },
{ "type": "Feature", "properties": { "name": "", "mw": "yes", "operator": "", "osm": "way/1009689780", "acres": 1.6 }, "geometry": { "type": "Polygon", "coordinates": [ [ [ -157.950518, 21.320014 ], [ -157.950531, 21.319857 ], [ -157.950303, 21.319837 ], [ -157.950359, 21.319094 ], [ -157.951045, 21.319145 ], [ -157.950955, 21.320049 ], [ -157.950518, 21.320014 ] ] ] } },
{ "type": "Feature", "properties": { "name": "", "mw": "yes", "operator": "", "osm": "way/1218051634", "acres": 0.3 }, "geometry": { "type": "Polygon", "coordinates": [ [ [ -157.836697, 21.338574 ], [ -157.836768, 21.338567 ], [ -157.836886, 21.338611 ], [ -157.836953, 21.338711 ], [ -157.836945, 21.338828 ], [ -157.836912, 21.33888 ], [ -157.836864, 21.338919 ], [ -157.836741, 21.338948 ], [ -157.836613, 21.338895 ], [ -157.836551, 21.338778 ], [ -157.836585, 21.338651 ], [ -157.836697, 21.338574 ] ] ] } },
{ "type": "Feature", "properties": { "name": "", "mw": "yes", "operator": "", "osm": "way/1416004689", "acres": 1.4 }, "geometry": { "type": "Polygon", "coordinates": [ [ [ -158.161294, 21.463113 ], [ -158.161033, 21.462188 ], [ -158.161114, 21.462088 ], [ -158.161737, 21.46234 ], [ -158.161683, 21.463037 ], [ -158.161294, 21.463113 ] ] ] } },
{ "type": "Feature", "properties": { "name": "", "mw": "yes", "operator": "", "osm": "way/1416004690", "acres": 1.4 }, "geometry": { "type": "Polygon", "coordinates": [ [ [ -158.161493, 21.461121 ], [ -158.16143, 21.460961 ], [ -158.161701, 21.460163 ], [ -158.161791, 21.46018 ], [ -158.161972, 21.460297 ], [ -158.162225, 21.460381 ], [ -158.162225, 21.460491 ], [ -158.161936, 21.461079 ], [ -158.161728, 21.461087 ], [ -158.161728, 21.461205 ], [ -158.161493, 21.461121 ] ] ] } },
{ "type": "Feature", "properties": { "name": "", "mw": "yes", "operator": "", "osm": "way/1497790123", "acres": 0.1 }, "geometry": { "type": "Polygon", "coordinates": [ [ [ -157.801686, 21.273388 ], [ -157.801679, 21.273361 ], [ -157.80151, 21.273397 ], [ -157.801453, 21.273171 ], [ -157.8016, 21.273139 ], [ -157.801588, 21.273089 ], [ -157.801641, 21.273078 ], [ -157.801717, 21.273382 ], [ -157.801686, 21.273388 ] ] ] } },
{ "type": "Feature", "properties": { "name": "Aloha Solar Energy Fund 1 PK1", "mw": "5 MW", "operator": "Altus Power America Management", "osm": "relation/9081831", "acres": 15.9 }, "geometry": { "type": "MultiPolygon", "coordinates": [ [ [ [ -158.160511, 21.405842 ], [ -158.16051, 21.405784 ], [ -158.160632, 21.405782 ], [ -158.160638, 21.406073 ], [ -158.160495, 21.406076 ], [ -158.160496, 21.406139 ], [ -158.160395, 21.406141 ], [ -158.160389, 21.405844 ], [ -158.160511, 21.405842 ] ] ], [ [ [ -158.160071, 21.406461 ], [ -158.159869, 21.406488 ], [ -158.159867, 21.406591 ], [ -158.159735, 21.406589 ], [ -158.159743, 21.406243 ], [ -158.159847, 21.406245 ], [ -158.159848, 21.406199 ], [ -158.159968, 21.406201 ], [ -158.159969, 21.406137 ], [ -158.16009, 21.406139 ], [ -158.160091, 21.406092 ], [ -158.160171, 21.406094 ], [ -158.160172, 21.406035 ], [ -158.160324, 21.406038 ], [ -158.160319, 21.406302 ], [ -158.160205, 21.4063 ], [ -158.160203, 21.406353 ], [ -158.160073, 21.406351 ], [ -158.160071, 21.406461 ] ] ], [ [ [ -158.159304, 21.406915 ], [ -158.159303, 21.406962 ], [ -158.159168, 21.406961 ], [ -158.159168, 21.407 ], [ -158.159094, 21.406999 ], [ -158.1591, 21.406547 ], [ -158.159189, 21.406548 ], [ -158.159189, 21.406483 ], [ -158.159303, 21.406484 ], [ -158.159304, 21.406437 ], [ -158.159433, 21.406438 ], [ -158.159433, 21.406393 ], [ -158.15954, 21.406394 ], [ -158.159541, 21.40633 ], [ -158.159675, 21.406331 ], [ -158.15967, 21.406761 ], [ -158.159535, 21.40676 ], [ -158.159535, 21.406821 ], [ -158.159428, 21.40682 ], [ -158.159426, 21.406916 ], [ -158.159304, 21.406915 ] ] ], [ [ [ -158.158562, 21.407149 ], [ -158.158562, 21.407178 ], [ -158.158483, 21.407177 ], [ -158.158486, 21.406908 ], [ -158.158587, 21.406909 ], [ -158.158587, 21.406864 ], [ -158.158704, 21.406865 ], [ -158.158705, 21.406745 ], [ -158.158825, 21.406746 ], [ -158.158825, 21.406687 ], [ -158.158939, 21.406688 ], [ -158.158939, 21.406638 ], [ -158.159038, 21.406639 ], [ -158.159034, 21.407054 ], [ -158.158906, 21.407053 ], [ -158.158906, 21.407093 ], [ -158.158799, 21.407092 ], [ -158.158798, 21.407151 ], [ -158.158562, 21.407149 ] ] ], [ [ [ -158.158055, 21.407353 ], [ -158.157929, 21.407354 ], [ -158.157929, 21.407402 ], [ -158.157831, 21.407403 ], [ -158.157828, 21.407059 ], [ -158.15806, 21.407058 ], [ -158.15806, 21.407004 ], [ -158.158285, 21.407002 ], [ -158.158285, 21.406964 ], [ -158.158413, 21.406963 ], [ -158.158416, 21.407262 ], [ -158.158295, 21.407262 ], [ -158.158296, 21.407311 ], [ -158.158055, 21.407313 ], [ -158.158055, 21.407353 ] ] ], [ [ [ -158.157665, 21.407097 ], [ -158.157773, 21.407096 ], [ -158.157777, 21.407492 ], [ -158.157554, 21.407494 ], [ -158.157555, 21.407557 ], [ -158.157327, 21.407559 ], [ -158.157327, 21.407616 ], [ -158.157221, 21.407617 ], [ -158.157216, 21.407233 ], [ -158.157457, 21.407231 ], [ -158.157456, 21.407165 ], [ -158.157666, 21.407163 ], [ -158.157665, 21.407097 ] ] ], [ [ [ -158.156703, 21.407403 ], [ -158.156704, 21.407333 ], [ -158.156939, 21.407337 ], [ -158.15694, 21.407276 ], [ -158.157153, 21.407279 ], [ -158.157145, 21.40769 ], [ -158.156926, 21.407687 ], [ -158.156924, 21.407751 ], [ -158.156592, 21.407745 ], [ -158.156598, 21.407401 ], [ -158.156703, 21.407403 ] ] ], [ [ [ -158.156531, 21.407397 ], [ -158.15653, 21.407768 ], [ -158.156286, 21.407767 ], [ -158.156286, 21.407818 ], [ -158.155965, 21.407817 ], [ -158.155966, 21.407466 ], [ -158.15639, 21.407467 ], [ -158.15639, 21.407397 ], [ -158.156531, 21.407397 ] ] ], [ [ [ -158.155325, 21.407494 ], [ -158.155894, 21.407487 ], [ -158.155899, 21.407848 ], [ -158.15533, 21.407854 ], [ -158.155325, 21.407494 ] ] ], [ [ [ -158.150846, 21.407613 ], [ -158.15061, 21.407614 ], [ -158.150609, 21.407485 ], [ -158.150483, 21.407485 ], [ -158.150483, 21.407277 ], [ -158.15037, 21.407278 ], [ -158.150368, 21.406726 ], [ -158.15027, 21.406726 ], [ -158.150266, 21.405666 ], [ -158.150613, 21.405665 ], [ -158.150614, 21.405864 ], [ -158.150735, 21.405864 ], [ -158.150735, 21.406016 ], [ -158.150839, 21.406015 ], [ -158.150846, 21.407613 ] ] ], [ [ [ -158.151048, 21.406168 ], [ -158.151047, 21.406288 ], [ -158.151156, 21.406289 ], [ -158.151154, 21.406415 ], [ -158.15128, 21.406416 ], [ -158.151279, 21.406516 ], [ -158.151382, 21.406517 ], [ -158.151381, 21.406574 ], [ -158.151513, 21.406575 ], [ -158.151499, 21.407958 ], [ -158.15113, 21.407955 ], [ -158.15113, 21.407918 ], [ -158.150902, 21.407916 ], [ -158.15092, 21.406167 ], [ -158.151048, 21.406168 ] ] ], [ [ [ -158.152647, 21.406992 ], [ -158.15274, 21.406991 ], [ -158.152752, 21.407639 ], [ -158.152293, 21.407646 ], [ -158.152295, 21.407753 ], [ -158.152199, 21.407754 ], [ -158.152183, 21.406894 ], [ -158.15242, 21.40689 ], [ -158.152421, 21.406943 ], [ -158.152646, 21.406939 ], [ -158.152647, 21.406992 ] ] ], [ [ [ -158.153282, 21.407134 ], [ -158.153282, 21.407171 ], [ -158.153385, 21.407171 ], [ -158.153385, 21.407611 ], [ -158.152815, 21.407611 ], [ -158.152815, 21.407069 ], [ -158.153026, 21.407069 ], [ -158.153026, 21.407134 ], [ -158.153282, 21.407134 ] ] ], [ [ [ -158.151917, 21.406801 ], [ -158.152142, 21.406801 ], [ -158.152144, 21.407903 ], [ -158.152029, 21.407903 ], [ -158.152029, 21.407961 ], [ -158.151869, 21.407961 ], [ -158.151869, 21.408027 ], [ -158.151684, 21.408027 ], [ -158.151685, 21.408061 ], [ -158.151567, 21.408061 ], [ -158.151565, 21.40668 ], [ -158.151823, 21.40668 ], [ -158.151823, 21.406745 ], [ -158.151917, 21.406745 ], [ -158.151917, 21.406801 ] ] ], [ [ [ -158.153448, 21.407627 ], [ -158.153451, 21.407219 ], [ -158.15369, 21.407221 ], [ -158.153689, 21.407286 ], [ -158.153903, 21.407288 ], [ -158.153903, 21.40735 ], [ -158.154017, 21.407351 ], [ -158.154015, 21.407733 ], [ -158.153785, 21.407732 ], [ -158.153785, 21.407695 ], [ -158.153565, 21.407693 ], [ -158.153566, 21.407628 ], [ -158.153448, 21.407627 ] ] ], [ [ [ -158.154633, 21.407442 ], [ -158.15463, 21.407763 ], [ -158.154066, 21.407758 ], [ -158.15407, 21.407391 ], [ -158.154189, 21.407393 ], [ -158.154188, 21.407438 ], [ -158.154633, 21.407442 ] ] ], [ [ [ -158.155278, 21.407855 ], [ -158.155162, 21.407854 ], [ -158.155162, 21.407804 ], [ -158.154689, 21.407803 ], [ -158.15469, 21.407494 ], [ -158.155279, 21.407494 ], [ -158.155278, 21.407855 ] ] ], [ [ [ -158.150847, 21.407914 ], [ -158.150718, 21.407915 ], [ -158.150716, 21.407812 ], [ -158.150618, 21.407813 ], [ -158.150617, 21.407682 ], [ -158.150844, 21.407679 ], [ -158.150847, 21.407914 ] ] ] ] } },
{ "type": "Feature", "properties": { "name": "Lanikuhana Solar", "mw": "14.7 MW", "operator": "Lanikuhana Solar LLC", "osm": "relation/11501993", "acres": 106.3 }, "geometry": { "type": "MultiPolygon", "coordinates": [ [ [ [ -158.014595, 21.416257 ], [ -158.014587, 21.414519 ], [ -158.014657, 21.414162 ], [ -158.01459, 21.412756 ], [ -158.014625, 21.412197 ], [ -158.014601, 21.411376 ], [ -158.014941, 21.410846 ], [ -158.015494, 21.410382 ], [ -158.015649, 21.410097 ], [ -158.016081, 21.409967 ], [ -158.016384, 21.410861 ], [ -158.016548, 21.411947 ], [ -158.016988, 21.413116 ], [ -158.018769, 21.416547 ], [ -158.020668, 21.419706 ], [ -158.021097, 21.420487 ], [ -158.021306, 21.420919 ], [ -158.021421, 21.421314 ], [ -158.018053, 21.421319 ], [ -158.01805, 21.416257 ], [ -158.014595, 21.416257 ] ] ], [ [ [ -158.02272, 21.424582 ], [ -158.022991, 21.426462 ], [ -158.022513, 21.426689 ], [ -158.020721, 21.426987 ], [ -158.018785, 21.427194 ], [ -158.018608, 21.427141 ], [ -158.018267, 21.426874 ], [ -158.018211, 21.426722 ], [ -158.018203, 21.425216 ], [ -158.018487, 21.425179 ], [ -158.022288, 21.423526 ], [ -158.022433, 21.423753 ], [ -158.02272, 21.424582 ] ] ] ] } },
{ "type": "Feature", "properties": { "name": "Kawailoa Solar", "mw": "49 MW", "operator": "Kawailoa Solar, LLC", "osm": "relation/11815227", "acres": 284.3 }, "geometry": { "type": "MultiPolygon", "coordinates": [ [ [ [ -158.050878, 21.615532 ], [ -158.051384, 21.615542 ], [ -158.051848, 21.615816 ], [ -158.051851, 21.616455 ], [ -158.051484, 21.616467 ], [ -158.051395, 21.616572 ], [ -158.050526, 21.616569 ], [ -158.049606, 21.615644 ], [ -158.048957, 21.615637 ], [ -158.048944, 21.614988 ], [ -158.04849, 21.61454 ], [ -158.048096, 21.614013 ], [ -158.048104, 21.613258 ], [ -158.048855, 21.613263 ], [ -158.050204, 21.613717 ], [ -158.050864, 21.614043 ], [ -158.050878, 21.615532 ] ] ], [ [ [ -158.064903, 21.619352 ], [ -158.064356, 21.61933 ], [ -158.064283, 21.619469 ], [ -158.058015, 21.616263 ], [ -158.057406, 21.615871 ], [ -158.056727, 21.615318 ], [ -158.056722, 21.614914 ], [ -158.056856, 21.61423 ], [ -158.057084, 21.614023 ], [ -158.058138, 21.613861 ], [ -158.058616, 21.613642 ], [ -158.059557, 21.61339 ], [ -158.061333, 21.613168 ], [ -158.064444, 21.613158 ], [ -158.064892, 21.613542 ], [ -158.065241, 21.614021 ], [ -158.065265, 21.61419 ], [ -158.064841, 21.614295 ], [ -158.064589, 21.6144 ], [ -158.064103, 21.614722 ], [ -158.063913, 21.615121 ], [ -158.063926, 21.615592 ], [ -158.064423, 21.616125 ], [ -158.064557, 21.616143 ], [ -158.064779, 21.616367 ], [ -158.064854, 21.61738 ], [ -158.065107, 21.617372 ], [ -158.06534, 21.617824 ], [ -158.065329, 21.618322 ], [ -158.065147, 21.618704 ], [ -158.064871, 21.618706 ], [ -158.064903, 21.619352 ] ] ], [ [ [ -158.062516, 21.62117 ], [ -158.061893, 21.620439 ], [ -158.061542, 21.619923 ], [ -158.061456, 21.619624 ], [ -158.061191, 21.619651 ], [ -158.06115, 21.619891 ], [ -158.059841, 21.619888 ], [ -158.059195, 21.619068 ], [ -158.059123, 21.618626 ], [ -158.059117, 21.618183 ], [ -158.06015, 21.61817 ], [ -158.063788, 21.620003 ], [ -158.063755, 21.620071 ], [ -158.063731, 21.620701 ], [ -158.063433, 21.621145 ], [ -158.062516, 21.62117 ] ] ], [ [ [ -158.051071, 21.620581 ], [ -158.052616, 21.620589 ], [ -158.053986, 21.621344 ], [ -158.055027, 21.622511 ], [ -158.055459, 21.622511 ], [ -158.05617, 21.622973 ], [ -158.060558, 21.622973 ], [ -158.061006, 21.623845 ], [ -158.060981, 21.624344 ], [ -158.060466, 21.624342 ], [ -158.060118, 21.62411 ], [ -158.060112, 21.623938 ], [ -158.059278, 21.62394 ], [ -158.059276, 21.625623 ], [ -158.058699, 21.625633 ], [ -158.058554, 21.625723 ], [ -158.057661, 21.625868 ], [ -158.054614, 21.625865 ], [ -158.054276, 21.625312 ], [ -158.054211, 21.624663 ], [ -158.052481, 21.624638 ], [ -158.051583, 21.623706 ], [ -158.051213, 21.623539 ], [ -158.049432, 21.622274 ], [ -158.048946, 21.622262 ], [ -158.048925, 21.621474 ], [ -158.047364, 21.621442 ], [ -158.046935, 21.620833 ], [ -158.046414, 21.620838 ], [ -158.046127, 21.621422 ], [ -158.045387, 21.621404 ], [ -158.044861, 21.619975 ], [ -158.044242, 21.619916 ], [ -158.043869, 21.619574 ], [ -158.043467, 21.619594 ], [ -158.043118, 21.620539 ], [ -158.042756, 21.620529 ], [ -158.042493, 21.620108 ], [ -158.041779, 21.619701 ], [ -158.0412, 21.619175 ], [ -158.040575, 21.619193 ], [ -158.040516, 21.619287 ], [ -158.039564, 21.619287 ], [ -158.038928, 21.618544 ], [ -158.038939, 21.617699 ], [ -158.040406, 21.617699 ], [ -158.041334, 21.617903 ], [ -158.042807, 21.617906 ], [ -158.043692, 21.618417 ], [ -158.043931, 21.618739 ], [ -158.04514, 21.618761 ], [ -158.045465, 21.619193 ], [ -158.048053, 21.619205 ], [ -158.048887, 21.619487 ], [ -158.050014, 21.618759 ], [ -158.050285, 21.618804 ], [ -158.051063, 21.619322 ], [ -158.051071, 21.620581 ] ] ] ] } },
{ "type": "Feature", "properties": { "name": "Waipio Solar", "mw": "45.9 MW", "operator": "Waipio PV, LLC", "osm": "relation/11815229", "acres": 245.4 }, "geometry": { "type": "MultiPolygon", "coordinates": [ [ [ [ -157.987038, 21.449843 ], [ -157.986888, 21.4523 ], [ -157.979751, 21.457732 ], [ -157.979748, 21.455423 ], [ -157.980236, 21.455153 ], [ -157.980773, 21.454809 ], [ -157.980968, 21.454514 ], [ -157.980848, 21.454062 ], [ -157.98095, 21.453932 ], [ -157.98144, 21.453635 ], [ -157.981524, 21.453353 ], [ -157.981191, 21.452739 ], [ -157.981827, 21.452252 ], [ -157.982688, 21.451885 ], [ -157.98283, 21.450872 ], [ -157.983146, 21.450565 ], [ -157.983573, 21.450412 ], [ -157.983787, 21.450185 ], [ -157.984007, 21.449688 ], [ -157.98442, 21.449354 ], [ -157.984951, 21.44876 ], [ -157.985343, 21.448583 ], [ -157.985579, 21.44833 ], [ -157.986046, 21.448196 ], [ -157.98677, 21.448066 ], [ -157.987666, 21.448231 ], [ -157.987666, 21.449252 ], [ -157.987427, 21.449409 ], [ -157.987038, 21.449843 ] ] ], [ [ [ -157.986781, 21.454551 ], [ -157.986716, 21.45531 ], [ -157.986295, 21.456009 ], [ -157.985922, 21.456167 ], [ -157.985281, 21.456197 ], [ -157.984686, 21.456172 ], [ -157.984147, 21.455845 ], [ -157.983508, 21.455001 ], [ -157.986258, 21.452951 ], [ -157.986258, 21.453563 ], [ -157.986502, 21.454155 ], [ -157.986781, 21.454551 ] ] ], [ [ [ -157.977921, 21.455365 ], [ -157.977449, 21.455555 ], [ -157.977262, 21.455565 ], [ -157.976733, 21.456002 ], [ -157.97595, 21.455964 ], [ -157.975532, 21.456089 ], [ -157.975384, 21.456281 ], [ -157.975389, 21.457005 ], [ -157.974644, 21.457005 ], [ -157.973665, 21.457432 ], [ -157.973477, 21.457584 ], [ -157.973533, 21.458186 ], [ -157.974094, 21.458268 ], [ -157.974456, 21.458378 ], [ -157.975196, 21.458258 ], [ -157.975403, 21.458376 ], [ -157.975408, 21.458873 ], [ -157.974722, 21.45902 ], [ -157.974502, 21.459557 ], [ -157.97444, 21.460031 ], [ -157.970473, 21.46058 ], [ -157.970218, 21.460642 ], [ -157.970202, 21.460548 ], [ -157.970548, 21.460245 ], [ -157.97128, 21.458241 ], [ -157.971787, 21.458391 ], [ -157.971857, 21.458583 ], [ -157.971956, 21.458673 ], [ -157.972377, 21.458683 ], [ -157.972544, 21.458378 ], [ -157.972549, 21.458049 ], [ -157.973067, 21.45736 ], [ -157.973166, 21.457033 ], [ -157.973504, 21.456596 ], [ -157.973734, 21.456459 ], [ -157.974158, 21.456401 ], [ -157.975078, 21.455747 ], [ -157.975258, 21.454983 ], [ -157.975843, 21.454559 ], [ -157.975971, 21.453543 ], [ -157.976055, 21.453433 ], [ -157.976326, 21.453396 ], [ -157.976709, 21.453595 ], [ -157.977353, 21.453555 ], [ -157.977916, 21.45359 ], [ -157.978613, 21.453403 ], [ -157.978619, 21.454387 ], [ -157.978281, 21.455116 ], [ -157.977921, 21.455365 ] ] ], [ [ [ -157.986274, 21.45723 ], [ -157.987132, 21.4572 ], [ -157.987851, 21.456082 ], [ -157.988414, 21.455692 ], [ -157.989501, 21.45571 ], [ -157.989688, 21.455974 ], [ -157.990214, 21.45734 ], [ -157.987808, 21.457652 ], [ -157.985998, 21.459364 ], [ -157.984866, 21.459419 ], [ -157.984455, 21.459549 ], [ -157.983838, 21.460126 ], [ -157.983535, 21.460772 ], [ -157.981341, 21.46081 ], [ -157.9811, 21.460964 ], [ -157.980043, 21.460957 ], [ -157.979477, 21.460695 ], [ -157.97852, 21.460151 ], [ -157.977868, 21.460166 ], [ -157.977879, 21.459404 ], [ -157.981419, 21.456631 ], [ -157.982406, 21.458026 ], [ -157.983484, 21.458034 ], [ -157.983881, 21.457924 ], [ -157.986274, 21.45723 ] ] ], [ [ [ -157.974558, 21.461232 ], [ -157.975878, 21.461806 ], [ -157.976899, 21.461948 ], [ -157.977559, 21.461965 ], [ -157.977514, 21.462485 ], [ -157.977044, 21.462834 ], [ -157.975502, 21.462807 ], [ -157.975164, 21.462465 ], [ -157.974869, 21.462505 ], [ -157.974204, 21.462462 ], [ -157.973898, 21.462033 ], [ -157.973096, 21.461846 ], [ -157.972163, 21.460847 ], [ -157.972147, 21.46049 ], [ -157.974791, 21.460113 ], [ -157.974665, 21.460615 ], [ -157.974421, 21.46087 ], [ -157.974416, 21.461087 ], [ -157.974558, 21.461232 ] ] ] ] } },
{ "type": "Feature", "properties": { "name": "Waihonu North Solar", "mw": "5 MW", "operator": "Waihonu North LLC", "osm": "relation/11815230", "acres": 14.6 }, "geometry": { "type": "MultiPolygon", "coordinates": [ [ [ [ -158.01277, 21.470942 ], [ -158.012242, 21.470943 ], [ -158.012022, 21.470897 ], [ -158.011536, 21.47062 ], [ -158.011403, 21.470512 ], [ -158.011279, 21.47027 ], [ -158.011279, 21.470191 ], [ -158.011648, 21.469702 ], [ -158.013606, 21.469704 ], [ -158.0136, 21.469828 ], [ -158.01277, 21.470942 ] ] ], [ [ [ -158.015189, 21.470702 ], [ -158.015169, 21.470945 ], [ -158.014637, 21.471667 ], [ -158.014507, 21.471663 ], [ -158.014324, 21.471893 ], [ -158.013367, 21.471893 ], [ -158.013032, 21.471705 ], [ -158.012887, 21.471708 ], [ -158.012618, 21.471546 ], [ -158.012618, 21.471453 ], [ -158.013195, 21.470692 ], [ -158.013659, 21.470707 ], [ -158.014212, 21.469966 ], [ -158.01448, 21.469978 ], [ -158.014927, 21.470245 ], [ -158.015189, 21.470702 ] ] ] ] } },
{ "type": "Feature", "properties": { "name": "", "mw": "yes", "operator": "", "osm": "relation/15667661", "acres": 5.9 }, "geometry": { "type": "MultiPolygon", "coordinates": [ [ [ [ -158.111007, 21.304842 ], [ -158.109009, 21.30512 ], [ -158.108945, 21.304611 ], [ -158.110937, 21.304336 ], [ -158.111007, 21.304842 ] ] ], [ [ [ -158.105403, 21.304709 ], [ -158.105906, 21.304637 ], [ -158.106012, 21.305286 ], [ -158.105769, 21.305321 ], [ -158.105749, 21.305197 ], [ -158.105489, 21.305234 ], [ -158.105403, 21.304709 ] ] ], [ [ [ -158.105083, 21.305295 ], [ -158.104901, 21.305315 ], [ -158.104855, 21.304961 ], [ -158.105038, 21.30494 ], [ -158.105083, 21.305295 ] ] ], [ [ [ -158.106904, 21.305035 ], [ -158.107173, 21.304998 ], [ -158.107157, 21.304895 ], [ -158.107385, 21.304865 ], [ -158.107458, 21.305328 ], [ -158.106848, 21.305411 ], [ -158.106784, 21.305001 ], [ -158.106896, 21.304985 ], [ -158.106904, 21.305035 ] ] ], [ [ [ -158.107691, 21.305261 ], [ -158.107459, 21.305288 ], [ -158.107424, 21.305033 ], [ -158.107657, 21.305006 ], [ -158.107691, 21.305261 ] ] ], [ [ [ -158.106243, 21.304947 ], [ -158.106638, 21.304892 ], [ -158.106716, 21.305375 ], [ -158.106323, 21.305443 ], [ -158.106243, 21.304947 ] ] ], [ [ [ -158.106773, 21.305583 ], [ -158.106541, 21.305616 ], [ -158.106522, 21.305507 ], [ -158.106755, 21.305473 ], [ -158.106773, 21.305583 ] ] ], [ [ [ -158.108491, 21.305668 ], [ -158.10719, 21.305696 ], [ -158.107187, 21.305594 ], [ -158.108488, 21.305566 ], [ -158.108491, 21.305668 ] ] ] ] } },
{ "type": "Feature", "properties": { "name": "", "mw": "yes", "operator": "", "osm": "relation/15687283", "acres": 5.9 }, "geometry": { "type": "MultiPolygon", "coordinates": [ [ [ [ -157.923974, 21.639568 ], [ -157.924091, 21.638742 ], [ -157.924208, 21.638757 ], [ -157.924099, 21.639578 ], [ -157.923974, 21.639568 ] ] ], [ [ [ -157.923918, 21.638862 ], [ -157.923888, 21.639206 ], [ -157.923917, 21.639209 ], [ -157.923791, 21.639801 ], [ -157.923655, 21.639783 ], [ -157.923784, 21.638918 ], [ -157.923393, 21.638868 ], [ -157.923404, 21.638796 ], [ -157.923918, 21.638862 ] ] ], [ [ [ -157.925053, 21.639964 ], [ -157.925119, 21.639544 ], [ -157.925359, 21.639577 ], [ -157.925293, 21.639997 ], [ -157.925053, 21.639964 ] ] ], [ [ [ -157.92585, 21.640066 ], [ -157.925907, 21.63965 ], [ -157.926181, 21.639682 ], [ -157.926124, 21.640098 ], [ -157.92585, 21.640066 ] ] ], [ [ [ -157.923773, 21.642077 ], [ -157.92385, 21.641482 ], [ -157.924392, 21.641555 ], [ -157.924304, 21.642139 ], [ -157.923773, 21.642077 ] ] ], [ [ [ -157.928446, 21.641807 ], [ -157.928515, 21.641783 ], [ -157.92878, 21.642385 ], [ -157.928746, 21.642397 ], [ -157.928834, 21.642615 ], [ -157.928787, 21.642631 ], [ -157.928706, 21.64243 ], [ -157.92868, 21.642439 ], [ -157.928524, 21.642049 ], [ -157.928446, 21.641807 ] ] ], [ [ [ -157.928407, 21.64278 ], [ -157.928191, 21.642226 ], [ -157.928424, 21.642147 ], [ -157.92864, 21.642701 ], [ -157.928407, 21.64278 ] ] ], [ [ [ -157.924096, 21.64262 ], [ -157.924076, 21.642766 ], [ -157.923738, 21.642726 ], [ -157.923755, 21.642579 ], [ -157.924096, 21.64262 ] ] ], [ [ [ -157.924065, 21.642828 ], [ -157.924045, 21.642975 ], [ -157.923636, 21.642926 ], [ -157.923656, 21.642779 ], [ -157.924065, 21.642828 ] ] ], [ [ [ -157.923553, 21.642958 ], [ -157.924038, 21.643016 ], [ -157.924018, 21.643163 ], [ -157.923535, 21.643105 ], [ -157.923553, 21.642958 ] ] ], [ [ [ -157.923321, 21.639694 ], [ -157.923412, 21.639013 ], [ -157.923568, 21.639031 ], [ -157.923477, 21.639712 ], [ -157.923321, 21.639694 ] ] ], [ [ [ -157.923392, 21.641842 ], [ -157.92342, 21.641602 ], [ -157.923689, 21.64163 ], [ -157.92366, 21.64187 ], [ -157.923392, 21.641842 ] ] ], [ [ [ -157.92336, 21.642496 ], [ -157.923438, 21.642367 ], [ -157.923766, 21.642539 ], [ -157.923688, 21.642668 ], [ -157.92336, 21.642496 ] ] ], [ [ [ -157.923201, 21.642644 ], [ -157.923286, 21.642519 ], [ -157.923656, 21.642736 ], [ -157.923571, 21.64286 ], [ -157.923201, 21.642644 ] ] ], [ [ [ -157.923133, 21.642698 ], [ -157.923538, 21.642938 ], [ -157.923454, 21.643064 ], [ -157.923047, 21.642823 ], [ -157.923133, 21.642698 ] ] ], [ [ [ -157.923082, 21.643258 ], [ -157.923102, 21.643111 ], [ -157.92401, 21.643219 ], [ -157.92399, 21.643366 ], [ -157.923082, 21.643258 ] ] ], [ [ [ -157.923084, 21.643473 ], [ -157.923104, 21.643326 ], [ -157.923979, 21.64343 ], [ -157.923959, 21.643577 ], [ -157.923084, 21.643473 ] ] ], [ [ [ -157.923154, 21.64354 ], [ -157.923955, 21.643635 ], [ -157.923934, 21.643782 ], [ -157.923134, 21.643687 ], [ -157.923154, 21.64354 ] ] ], [ [ [ -157.923199, 21.643748 ], [ -157.923931, 21.643835 ], [ -157.923911, 21.643982 ], [ -157.923178, 21.643895 ], [ -157.923199, 21.643748 ] ] ] ] } },
{ "type": "Feature", "properties": { "name": "", "mw": "yes", "operator": "", "osm": "relation/17393660", "acres": 13.3 }, "geometry": { "type": "MultiPolygon", "coordinates": [ [ [ [ -157.985509, 21.681082 ], [ -157.985464, 21.681262 ], [ -157.985282, 21.681488 ], [ -157.98522, 21.681747 ], [ -157.98522, 21.681868 ], [ -157.984964, 21.681889 ], [ -157.984823, 21.68153 ], [ -157.984732, 21.681399 ], [ -157.984601, 21.681283 ], [ -157.984425, 21.681172 ], [ -157.983892, 21.681066 ], [ -157.983773, 21.68075 ], [ -157.983364, 21.680724 ], [ -157.983341, 21.680223 ], [ -157.98312, 21.679827 ], [ -157.983109, 21.679748 ], [ -157.983733, 21.679722 ], [ -157.98396, 21.679811 ], [ -157.984113, 21.679954 ], [ -157.984658, 21.680101 ], [ -157.984919, 21.680217 ], [ -157.985163, 21.68037 ], [ -157.985339, 21.680576 ], [ -157.98547, 21.68084 ], [ -157.985509, 21.681082 ] ] ], [ [ [ -157.984941, 21.683323 ], [ -157.984792, 21.683441 ], [ -157.984619, 21.68342 ], [ -157.984425, 21.683316 ], [ -157.984267, 21.683295 ], [ -157.98411, 21.683316 ], [ -157.983549, 21.683587 ], [ -157.982837, 21.683747 ], [ -157.982508, 21.683858 ], [ -157.981856, 21.684158 ], [ -157.981662, 21.683865 ], [ -157.982448, 21.683211 ], [ -157.982478, 21.683044 ], [ -157.98256, 21.682968 ], [ -157.982822, 21.682856 ], [ -157.983601, 21.682843 ], [ -157.983781, 21.682919 ], [ -157.983953, 21.682954 ], [ -157.984335, 21.682891 ], [ -157.984724, 21.682676 ], [ -157.985069, 21.682676 ], [ -157.985016, 21.683107 ], [ -157.984941, 21.683323 ] ] ] ] } },
{ "type": "Feature", "properties": { "name": "Pearl City Peninsula Solar Park", "mw": "1 MW", "operator": "Forest City Sustainable Resources Pearl City LLC", "osm": "relation/18300741", "acres": 3.5 }, "geometry": { "type": "MultiPolygon", "coordinates": [ [ [ [ -157.96748, 21.375485 ], [ -157.967549, 21.375381 ], [ -157.968178, 21.378158 ], [ -157.968153, 21.378162 ], [ -157.96748, 21.375485 ] ] ], [ [ [ -157.969185, 21.377264 ], [ -157.969545, 21.37783 ], [ -157.968178, 21.378158 ], [ -157.968499, 21.376899 ], [ -157.96905, 21.376762 ], [ -157.969185, 21.377264 ] ] ] ] } },
{ "type": "Feature", "properties": { "name": "Waiawa Phase 2 Solar + Storage", "mw": "yes", "operator": "AES Corporation", "osm": "relation/19251113", "acres": 271.3 }, "geometry": { "type": "MultiPolygon", "coordinates": [ [ [ [ -157.978083, 21.430987 ], [ -157.977794, 21.431021 ], [ -157.976919, 21.429468 ], [ -157.977153, 21.427876 ], [ -157.978057, 21.42635 ], [ -157.979508, 21.426326 ], [ -157.979612, 21.427125 ], [ -157.980262, 21.427331 ], [ -157.980952, 21.42813 ], [ -157.981313, 21.429239 ], [ -157.980308, 21.430443 ], [ -157.978083, 21.430987 ] ] ], [ [ [ -157.989675, 21.426862 ], [ -157.990991, 21.427019 ], [ -157.991068, 21.428284 ], [ -157.991705, 21.428267 ], [ -157.99172, 21.428996 ], [ -157.990886, 21.429 ], [ -157.990881, 21.429188 ], [ -157.986833, 21.429669 ], [ -157.985408, 21.429698 ], [ -157.985275, 21.432986 ], [ -157.984987, 21.433712 ], [ -157.984629, 21.434237 ], [ -157.984211, 21.434594 ], [ -157.983608, 21.434945 ], [ -157.977541, 21.437788 ], [ -157.976945, 21.437123 ], [ -157.976693, 21.436503 ], [ -157.976446, 21.436263 ], [ -157.976702, 21.435795 ], [ -157.977504, 21.435108 ], [ -157.978195, 21.435079 ], [ -157.97827, 21.434393 ], [ -157.978195, 21.433631 ], [ -157.978377, 21.43314 ], [ -157.979183, 21.433122 ], [ -157.979189, 21.432882 ], [ -157.980297, 21.432864 ], [ -157.980302, 21.432581 ], [ -157.98092, 21.432522 ], [ -157.981276, 21.432686 ], [ -157.981496, 21.432823 ], [ -157.981671, 21.43348 ], [ -157.982531, 21.433487 ], [ -157.982554, 21.433196 ], [ -157.982924, 21.43318 ], [ -157.982946, 21.432858 ], [ -157.983151, 21.432854 ], [ -157.983142, 21.430973 ], [ -157.983468, 21.430531 ], [ -157.98218, 21.42915 ], [ -157.981993, 21.426756 ], [ -157.982073, 21.425993 ], [ -157.982635, 21.425341 ], [ -157.982902, 21.424826 ], [ -157.983867, 21.423898 ], [ -157.985419, 21.42256 ], [ -157.986886, 21.424025 ], [ -157.989675, 21.426862 ] ] ], [ [ [ -157.975554, 21.431895 ], [ -157.975723, 21.432473 ], [ -157.975763, 21.434462 ], [ -157.975154, 21.434546 ], [ -157.975102, 21.435145 ], [ -157.973907, 21.435687 ], [ -157.973504, 21.435705 ], [ -157.973478, 21.433943 ], [ -157.973614, 21.433628 ], [ -157.974278, 21.433531 ], [ -157.974336, 21.43212 ], [ -157.973875, 21.431812 ], [ -157.973686, 21.43074 ], [ -157.973785, 21.430408 ], [ -157.975243, 21.430435 ], [ -157.97559, 21.430657 ], [ -157.975554, 21.431895 ] ] ] ] } }
]
}
