{
"type": "FeatureCollection",
"name": "wind_turbines",
"crs": { "type": "name", "properties": { "name": "urn:ogc:def:crs:OGC:1.3:CRS84" } },
"xy_coordinate_resolution": 1e-06,
"features": [
{ "type": "Feature", "properties": { "farm": "Kawailoa Wind", "output": "2300 kW", "manufacturer": "Siemens" }, "geometry": { "type": "Point", "coordinates": [ -158.029339, 21.60165 ] } },
{ "type": "Feature", "properties": { "farm": "Kawailoa Wind", "output": "2300 kW", "manufacturer": "Siemens" }, "geometry": { "type": "Point", "coordinates": [ -158.023771, 21.599872 ] } },
{ "type": "Feature", "properties": { "farm": "Kawailoa Wind", "output": "2300 kW", "manufacturer": "Siemens" }, "geometry": { "type": "Point", "coordinates": [ -158.023143, 21.598167 ] } },
{ "type": "Feature", "properties": { "farm": "Kawailoa Wind", "output": "2300 kW", "manufacturer": "Siemens" }, "geometry": { "type": "Point", "coordinates": [ -158.037252, 21.590505 ] } },
{ "type": "Feature", "properties": { "farm": "Kawailoa Wind", "output": "2300 kW", "manufacturer": "Siemens" }, "geometry": { "type": "Point", "coordinates": [ -158.038234, 21.5921 ] } },
{ "type": "Feature", "properties": { "farm": "Kawailoa Wind", "output": "2300 kW", "manufacturer": "Siemens" }, "geometry": { "type": "Point", "coordinates": [ -158.050523, 21.594366 ] } },
{ "type": "Feature", "properties": { "farm": "Kawailoa Wind", "output": "2300 kW", "manufacturer": "Siemens" }, "geometry": { "type": "Point", "coordinates": [ -158.050431, 21.597082 ] } },
{ "type": "Feature", "properties": { "farm": "Kawailoa Wind", "output": "2300 kW", "manufacturer": "Siemens" }, "geometry": { "type": "Point", "coordinates": [ -158.051427, 21.598678 ] } },
{ "type": "Feature", "properties": { "farm": "Kawailoa Wind", "output": "2300 kW", "manufacturer": "Siemens" }, "geometry": { "type": "Point", "coordinates": [ -158.05237, 21.600262 ] } },
{ "type": "Feature", "properties": { "farm": "Kawailoa Wind", "output": "2300 kW", "manufacturer": "Siemens" }, "geometry": { "type": "Point", "coordinates": [ -158.048632, 21.592263 ] } },
{ "type": "Feature", "properties": { "farm": "Kawailoa Wind", "output": "2300 kW", "manufacturer": "Siemens" }, "geometry": { "type": "Point", "coordinates": [ -158.054906, 21.610056 ] } },
{ "type": "Feature", "properties": { "farm": "Kawailoa Wind", "output": "2300 kW", "manufacturer": "Siemens" }, "geometry": { "type": "Point", "coordinates": [ -158.053082, 21.607871 ] } },
{ "type": "Feature", "properties": { "farm": "Kawailoa Wind", "output": "2300 kW", "manufacturer": "Siemens" }, "geometry": { "type": "Point", "coordinates": [ -158.052085, 21.606295 ] } },
{ "type": "Feature", "properties": { "farm": "Kawailoa Wind", "output": "2300 kW", "manufacturer": "Siemens" }, "geometry": { "type": "Point", "coordinates": [ -158.051087, 21.604719 ] } },
{ "type": "Feature", "properties": { "farm": "Kawailoa Wind", "output": "2300 kW", "manufacturer": "Siemens" }, "geometry": { "type": "Point", "coordinates": [ -158.040983, 21.610487 ] } },
{ "type": "Feature", "properties": { "farm": "Kawailoa Wind", "output": "2300 kW", "manufacturer": "Siemens" }, "geometry": { "type": "Point", "coordinates": [ -158.058404, 21.619497 ] } },
{ "type": "Feature", "properties": { "farm": "Kawailoa Wind", "output": "2300 kW", "manufacturer": "Siemens" }, "geometry": { "type": "Point", "coordinates": [ -158.057165, 21.617522 ] } },
{ "type": "Feature", "properties": { "farm": "Kawailoa Wind", "output": "2300 kW", "manufacturer": "Siemens" }, "geometry": { "type": "Point", "coordinates": [ -158.056178, 21.615926 ] } },
{ "type": "Feature", "properties": { "farm": "Kawailoa Wind", "output": "2300 kW", "manufacturer": "Siemens" }, "geometry": { "type": "Point", "coordinates": [ -158.055207, 21.614345 ] } },
{ "type": "Feature", "properties": { "farm": "Kawailoa Wind", "output": "2300 kW", "manufacturer": "Siemens" }, "geometry": { "type": "Point", "coordinates": [ -158.028932, 21.613068 ] } },
{ "type": "Feature", "properties": { "farm": "Kawailoa Wind", "output": "2300 kW", "manufacturer": "Siemens" }, "geometry": { "type": "Point", "coordinates": [ -158.027118, 21.611507 ] } },
{ "type": "Feature", "properties": { "farm": "Kawailoa Wind", "output": "2300 kW", "manufacturer": "Siemens" }, "geometry": { "type": "Point", "coordinates": [ -158.026266, 21.609876 ] } },
{ "type": "Feature", "properties": { "farm": "Kawailoa Wind", "output": "2300 kW", "manufacturer": "Siemens" }, "geometry": { "type": "Point", "coordinates": [ -158.025488, 21.608181 ] } },
{ "type": "Feature", "properties": { "farm": "Kawailoa Wind", "output": "2300 kW", "manufacturer": "Siemens" }, "geometry": { "type": "Point", "coordinates": [ -158.024699, 21.60652 ] } },
{ "type": "Feature", "properties": { "farm": "Kawailoa Wind", "output": "2300 kW", "manufacturer": "Siemens" }, "geometry": { "type": "Point", "coordinates": [ -158.030798, 21.616729 ] } },
{ "type": "Feature", "properties": { "farm": "Kawailoa Wind", "output": "2300 kW", "manufacturer": "Siemens" }, "geometry": { "type": "Point", "coordinates": [ -158.033041, 21.618504 ] } },
{ "type": "Feature", "properties": { "farm": "Kawailoa Wind", "output": "2300 kW", "manufacturer": "Siemens" }, "geometry": { "type": "Point", "coordinates": [ -158.037134, 21.620983 ] } },
{ "type": "Feature", "properties": { "farm": "Kawailoa Wind", "output": "2300 kW", "manufacturer": "Siemens" }, "geometry": { "type": "Point", "coordinates": [ -158.043721, 21.623815 ] } },
{ "type": "Feature", "properties": { "farm": "Kawailoa Wind", "output": "2300 kW", "manufacturer": "Siemens" }, "geometry": { "type": "Point", "coordinates": [ -158.045787, 21.62575 ] } },
{ "type": "Feature", "properties": { "farm": "Kawailoa Wind", "output": "2300 kW", "manufacturer": "Siemens" }, "geometry": { "type": "Point", "coordinates": [ -158.050218, 21.627695 ] } },
{ "type": "Feature", "properties": { "farm": "Kahuku Wind (2011)", "output": "2.5 MW", "manufacturer": "Clipper" }, "geometry": { "type": "Point", "coordinates": [ -157.97373, 21.68755 ] } },
{ "type": "Feature", "properties": { "farm": "Kahuku Wind (2011)", "output": "2.5 MW", "manufacturer": "Clipper" }, "geometry": { "type": "Point", "coordinates": [ -157.973865, 21.686063 ] } },
{ "type": "Feature", "properties": { "farm": "Kahuku Wind (2011)", "output": "2.5 MW", "manufacturer": "Clipper" }, "geometry": { "type": "Point", "coordinates": [ -157.972195, 21.684481 ] } },
{ "type": "Feature", "properties": { "farm": "Kahuku Wind (2011)", "output": "2.5 MW", "manufacturer": "Clipper" }, "geometry": { "type": "Point", "coordinates": [ -157.969148, 21.682788 ] } },
{ "type": "Feature", "properties": { "farm": "Kahuku Wind (2011)", "output": "2.5 MW", "manufacturer": "Clipper" }, "geometry": { "type": "Point", "coordinates": [ -157.970065, 21.681016 ] } },
{ "type": "Feature", "properties": { "farm": "Kahuku Wind (2011)", "output": "2.5 MW", "manufacturer": "Clipper" }, "geometry": { "type": "Point", "coordinates": [ -157.970347, 21.679324 ] } },
{ "type": "Feature", "properties": { "farm": "Kahuku Wind (2011)", "output": "2.5 MW", "manufacturer": "Clipper" }, "geometry": { "type": "Point", "coordinates": [ -157.971921, 21.674957 ] } },
{ "type": "Feature", "properties": { "farm": "Kahuku Wind (2011)", "output": "2.5 MW", "manufacturer": "Clipper" }, "geometry": { "type": "Point", "coordinates": [ -157.973517, 21.676191 ] } },
{ "type": "Feature", "properties": { "farm": "Kahuku Wind (2011)", "output": "2.5 MW", "manufacturer": "Clipper" }, "geometry": { "type": "Point", "coordinates": [ -157.974161, 21.677861 ] } },
{ "type": "Feature", "properties": { "farm": "Kahuku Wind (2011)", "output": "2.5 MW", "manufacturer": "Clipper" }, "geometry": { "type": "Point", "coordinates": [ -157.981162, 21.679025 ] } },
{ "type": "Feature", "properties": { "farm": "Kahuku Wind (2011)", "output": "2.5 MW", "manufacturer": "Clipper" }, "geometry": { "type": "Point", "coordinates": [ -157.982343, 21.680417 ] } },
{ "type": "Feature", "properties": { "farm": "Kahuku Wind (2011)", "output": "2.5 MW", "manufacturer": "Clipper" }, "geometry": { "type": "Point", "coordinates": [ -157.98397, 21.682046 ] } },
{ "type": "Feature", "properties": { "farm": "Na Pua Makani", "output": "3.45 MW", "manufacturer": "Vestas" }, "geometry": { "type": "Point", "coordinates": [ -157.951116, 21.661817 ] } },
{ "type": "Feature", "properties": { "farm": "Na Pua Makani", "output": "3.45 MW", "manufacturer": "Vestas" }, "geometry": { "type": "Point", "coordinates": [ -157.949747, 21.664659 ] } },
{ "type": "Feature", "properties": { "farm": "Na Pua Makani", "output": "3.45 MW", "manufacturer": "Vestas" }, "geometry": { "type": "Point", "coordinates": [ -157.949959, 21.667019 ] } },
{ "type": "Feature", "properties": { "farm": "Na Pua Makani", "output": "3.45 MW", "manufacturer": "Vestas" }, "geometry": { "type": "Point", "coordinates": [ -157.950042, 21.669218 ] } },
{ "type": "Feature", "properties": { "farm": "Na Pua Makani", "output": "3.45 MW", "manufacturer": "Vestas" }, "geometry": { "type": "Point", "coordinates": [ -157.969741, 21.672027 ] } },
{ "type": "Feature", "properties": { "farm": "Na Pua Makani", "output": "3.45 MW", "manufacturer": "Vestas" }, "geometry": { "type": "Point", "coordinates": [ -157.969813, 21.669568 ] } },
{ "type": "Feature", "properties": { "farm": "Na Pua Makani", "output": "3.45 MW", "manufacturer": "Vestas" }, "geometry": { "type": "Point", "coordinates": [ -157.970289, 21.667175 ] } },
{ "type": "Feature", "properties": { "farm": "Na Pua Makani", "output": "3.45 MW", "manufacturer": "Vestas" }, "geometry": { "type": "Point", "coordinates": [ -157.968763, 21.665067 ] } }
]
}
